{"type":"FeatureCollection","features":[{"type":"Feature","properties":{"id":"east-turkestan","kind":"human-rights","name_tr":"Doğu Türkistan (Sincan Uygur Özerk Bölgesi)","name_en":"East Turkestan (Xinjiang Uyghur Autonomous Region)","label_tr":"Doğu Türkistan","label_en":"East Turkestan","label_at":[85.5,41.6],"note_tr":"Uygur Türklerine ve diğer Müslüman topluluklara yönelik ağır insan hakları ihlalleri: T.C. Dışişleri Bakanlığı açıklaması (9 Şubat 2019) ve BM İnsan Hakları Yüksek Komiserliği değerlendirmesi (31 Ağustos 2022). Bir sınır iddiası değil, insan hakları işaretidir.","note_en":"Grave human rights violations against Uyghur Turks and other Muslim communities: statement by the Turkish Ministry of Foreign Affairs (9 Feb 2019) and the UN OHCHR assessment (31 Aug 2022). A human-rights marker, not a boundary claim.","sources":["https://www.mfa.gov.tr/sc_-06_-uygur-turklerine-yonelik-agir-insan-haklari-ihlalleri-ve-abdurrehim-heyit-in-vefati-hk.tr.mfa","https://www.ohchr.org/en/documents/country-reports/ohchr-assessment-human-rights-concerns-xinjiang-uyghur-autonomous-region"],"basis":"Boundary: Natural Earth 1:50m admin-1 (public domain), feature Xinjiang"},"geometry":{"type":"MultiPolygon","coordinates":[[[[78.947,34.336],[78.936,34.352],[78.865,34.39],[78.763,34.453],[78.671,34.518],[78.516,34.558],[78.327,34.606],[78.282,34.654],[78.236,34.77],[78.158,34.946],[78.076,35.135],[78.012,35.251],[78.009,35.307],[78.047,35.449],[78.043,35.48],[78.009,35.49],[77.946,35.472],[77.895,35.449],[77.852,35.461],[77.811,35.485],[77.799,35.496],[77.724,35.481],[77.573,35.472],[77.52,35.473],[77.447,35.476],[77.295,35.508],[77.09,35.552],[76.879,35.613],[76.767,35.662],[76.728,35.679],[76.632,35.729],[76.563,35.773],[76.551,35.887],[76.502,35.878],[76.386,35.837],[76.252,35.811],[76.178,35.811],[76.148,35.829],[76.103,35.949],[76.071,35.983],[76.01,35.996],[75.945,36.018],[75.912,36.049],[75.905,36.088],[75.934,36.134],[75.969,36.169],[75.974,36.382],[75.952,36.458],[75.951,36.46],[75.933,36.522],[75.885,36.601],[75.84,36.65],[75.772,36.695],[75.667,36.742],[75.574,36.759],[75.46,36.725],[75.424,36.738],[75.377,36.884],[75.347,36.913],[75.145,36.973],[75.054,36.987],[74.949,36.968],[74.889,36.952],[74.841,36.979],[74.766,37.013],[74.692,37.036],[74.601,37.037],[74.541,37.022],[74.526,37.031],[74.498,37.057],[74.376,37.137],[74.372,37.158],[74.559,37.237],[74.669,37.267],[74.727,37.291],[74.739,37.286],[74.767,37.249],[74.84,37.225],[74.891,37.232],[74.918,37.25],[75.008,37.294],[75.079,37.344],[75.119,37.386],[75.098,37.451],[74.986,37.53],[74.916,37.573],[74.894,37.601],[74.912,37.687],[74.938,37.773],[74.921,37.805],[74.9,37.833],[74.891,37.926],[74.842,38.038],[74.79,38.104],[74.775,38.192],[74.772,38.275],[74.836,38.404],[74.812,38.46],[74.745,38.51],[74.514,38.6],[74.277,38.66],[74.187,38.658],[74.131,38.661],[74.065,38.608],[74.026,38.54],[73.97,38.534],[73.869,38.563],[73.802,38.607],[73.754,38.699],[73.717,38.817],[73.696,38.854],[73.707,38.886],[73.73,38.915],[73.794,38.941],[73.805,38.969],[73.796,39.002],[73.744,39.045],[73.69,39.105],[73.607,39.229],[73.623,39.298],[73.636,39.397],[73.632,39.449],[73.716,39.462],[73.823,39.489],[73.873,39.533],[73.907,39.579],[73.915,39.606],[73.883,39.715],[73.84,39.763],[73.835,39.8],[73.856,39.829],[73.885,39.878],[73.939,39.979],[73.992,40.043],[74.021,40.059],[74.085,40.074],[74.243,40.092],[74.412,40.137],[74.613,40.272],[74.68,40.311],[74.768,40.33],[74.831,40.328],[74.842,40.345],[74.801,40.429],[74.811,40.459],[74.835,40.483],[74.866,40.493],[75.005,40.449],[75.111,40.454],[75.241,40.48],[75.521,40.628],[75.556,40.625],[75.584,40.605],[75.617,40.517],[75.656,40.329],[75.677,40.306],[75.872,40.303],[76.004,40.371],[76.062,40.388],[76.157,40.376],[76.206,40.408],[76.258,40.431],[76.319,40.352],[76.396,40.39],[76.48,40.45],[76.521,40.511],[76.578,40.578],[76.622,40.662],[76.64,40.742],[76.661,40.78],[76.708,40.818],[76.824,40.982],[76.908,41.024],[76.987,41.039],[77.182,41.011],[77.284,41.014],[77.582,40.993],[77.719,41.024],[77.815,41.056],[77.956,41.051],[78.123,41.076],[78.346,41.281],[78.349,41.325],[78.362,41.372],[78.443,41.418],[78.543,41.46],[78.743,41.56],[79.148,41.719],[79.294,41.783],[79.354,41.781],[79.504,41.821],[79.766,41.899],[79.84,41.996],[79.91,42.015],[80.216,42.032],[80.235,42.043],[80.246,42.06],[80.229,42.13],[80.209,42.19],[80.233,42.208],[80.259,42.235],[80.255,42.274],[80.206,42.399],[80.179,42.518],[80.162,42.626],[80.165,42.666],[80.202,42.734],[80.25,42.797],[80.424,42.856],[80.539,42.874],[80.544,42.912],[80.451,42.936],[80.383,42.974],[80.371,42.996],[80.375,43.02],[80.39,43.043],[80.507,43.086],[80.617,43.128],[80.751,43.103],[80.778,43.119],[80.786,43.162],[80.757,43.204],[80.73,43.274],[80.668,43.31],[80.665,43.353],[80.704,43.427],[80.651,43.564],[80.593,43.685],[80.496,43.892],[80.432,43.952],[80.396,44.047],[80.355,44.097],[80.359,44.171],[80.365,44.223],[80.355,44.326],[80.336,44.438],[80.355,44.552],[80.391,44.627],[80.381,44.655],[80.401,44.677],[80.455,44.684],[80.482,44.715],[80.455,44.746],[80.361,44.77],[80.255,44.808],[80.128,44.804],[79.997,44.797],[79.932,44.825],[79.875,44.861],[79.872,44.884],[79.95,44.944],[80.059,45.006],[80.228,45.034],[80.415,45.075],[80.509,45.105],[80.635,45.126],[80.78,45.136],[80.853,45.129],[81.04,45.169],[81.335,45.246],[81.602,45.311],[81.692,45.349],[81.759,45.311],[81.79,45.226],[81.867,45.182],[81.945,45.161],[81.989,45.162],[82.123,45.195],[82.267,45.219],[82.323,45.206],[82.397,45.162],[82.479,45.124],[82.521,45.125],[82.559,45.155],[82.597,45.216],[82.621,45.293],[82.626,45.374],[82.612,45.424],[82.583,45.443],[82.452,45.472],[82.327,45.52],[82.312,45.564],[82.315,45.595],[82.348,45.672],[82.43,45.812],[82.512,46.006],[82.555,46.159],[82.692,46.387],[82.8,46.624],[82.975,46.966],[83.004,47.034],[83.02,47.141],[83.029,47.186],[83.09,47.209],[83.193,47.187],[83.444,47.109],[83.634,47.043],[83.714,47.021],[83.833,46.998],[84.016,46.971],[84.122,46.979],[84.215,46.995],[84.339,46.996],[84.532,46.976],[84.592,46.975],[84.667,46.972],[84.72,46.939],[84.746,46.864],[84.786,46.831],[84.858,46.843],[85.012,46.909],[85.111,46.961],[85.233,47.036],[85.355,47.047],[85.485,47.064],[85.53,47.101],[85.577,47.188],[85.657,47.255],[85.67,47.338],[85.642,47.397],[85.587,47.494],[85.588,47.558],[85.562,47.746],[85.526,47.916],[85.562,48.052],[85.626,48.204],[85.652,48.251],[85.692,48.312],[85.749,48.385],[85.83,48.408],[86.056,48.424],[86.266,48.455],[86.373,48.486],[86.483,48.505],[86.549,48.529],[86.664,48.636],[86.718,48.697],[86.758,48.861],[86.729,48.939],[86.753,49.009],[86.808,49.05],[86.886,49.091],[86.938,49.098],[87.049,49.11],[87.23,49.106],[87.323,49.086],[87.417,49.077],[87.476,49.091],[87.516,49.122],[87.577,49.132],[87.668,49.147],[87.762,49.166],[87.814,49.162],[87.825,49.116],[87.816,49.08],[87.835,49.032],[87.872,49.0],[87.86,48.966],[87.807,48.945],[87.755,48.919],[87.743,48.882],[87.809,48.836],[87.832,48.792],[87.942,48.765],[88.028,48.736],[88.06,48.707],[88.05,48.675],[88.011,48.64],[87.972,48.603],[87.967,48.581],[87.98,48.555],[88.063,48.538],[88.158,48.509],[88.31,48.472],[88.414,48.403],[88.517,48.384],[88.567,48.317],[88.576,48.22],[88.682,48.171],[88.838,48.102],[88.918,48.089],[88.971,48.05],[89.048,48.003],[89.116,47.988],[89.196,47.981],[89.33,48.025],[89.479,48.029],[89.561,48.004],[89.638,47.909],[89.693,47.879],[89.726,47.852],[89.778,47.827],[89.831,47.823],[89.91,47.844],[89.959,47.886],[90.028,47.878],[90.054,47.85],[90.067,47.804],[90.103,47.745],[90.191,47.702],[90.313,47.676],[90.331,47.655],[90.347,47.597],[90.381,47.557],[90.425,47.504],[90.467,47.408],[90.476,47.329],[90.496,47.285],[90.553,47.214],[90.643,47.1],[90.716,47.004],[90.799,46.985],[90.87,46.954],[90.911,46.883],[90.986,46.749],[90.998,46.661],[91.004,46.596],[91.029,46.566],[91.034,46.529],[90.971,46.388],[90.918,46.324],[90.912,46.271],[90.948,46.177],[90.997,46.105],[91.002,46.036],[90.96,45.985],[90.887,45.922],[90.852,45.885],[90.796,45.854],[90.71,45.731],[90.671,45.595],[90.662,45.525],[90.694,45.475],[90.75,45.419],[90.763,45.371],[90.853,45.263],[90.877,45.196],[90.914,45.194],[90.954,45.216],[91.05,45.217],[91.138,45.194],[91.222,45.145],[91.312,45.118],[91.441,45.125],[91.51,45.098],[91.584,45.077],[91.738,45.069],[91.853,45.069],[92.03,45.069],[92.173,45.035],[92.424,45.009],[92.579,45.011],[92.788,45.036],[92.916,45.02],[93.294,44.983],[93.516,44.944],[93.656,44.901],[93.755,44.832],[93.868,44.724],[93.958,44.675],[94.199,44.645],[94.365,44.52],[94.494,44.473],[94.712,44.351],[94.866,44.303],[95.05,44.259],[95.35,44.278],[95.367,44.262],[95.344,44.195],[95.326,44.105],[95.326,44.039],[95.356,44.006],[95.471,43.986],[95.526,43.954],[95.567,43.892],[95.591,43.854],[95.687,43.664],[95.842,43.384],[95.86,43.276],[95.913,43.207],[96.08,43.096],[96.168,43.014],[96.299,42.929],[96.342,42.849],[96.352,42.747],[96.373,42.731],[96.091,42.587],[96.044,42.5],[96.018,42.139],[96.036,41.995],[95.864,41.855],[95.772,41.83],[95.492,41.856],[95.058,41.789],[94.581,41.585],[94.011,41.104],[93.76,40.823],[93.669,40.683],[93.577,40.588],[93.286,40.469],[93.037,40.49],[92.926,40.423],[92.92,40.118],[92.777,39.906],[92.772,39.811],[92.948,39.452],[92.936,39.153],[92.333,39.05],[92.123,38.941],[91.881,38.875],[91.629,38.826],[91.492,38.817],[91.294,38.745],[91.012,38.699],[90.654,38.674],[90.636,38.624],[90.478,38.533],[90.312,38.466],[90.151,38.433],[90.193,38.326],[90.439,37.996],[90.41,37.847],[90.436,37.779],[90.834,37.608],[90.957,37.519],[91.074,37.488],[91.152,37.323],[91.235,37.195],[91.316,37.119],[91.288,37.014],[91.191,37.001],[91.055,36.945],[90.891,36.939],[90.808,36.911],[90.712,36.822],[90.688,36.698],[90.71,36.636],[90.805,36.559],[91.007,36.503],[91.061,36.314],[91.136,36.141],[91.111,36.074],[90.915,36.013],[90.829,36.01],[90.623,36.111],[90.292,36.116],[90.166,36.129],[90.014,36.253],[89.972,36.105],[89.867,36.066],[89.678,36.082],[89.224,36.264],[88.958,36.287],[88.828,36.374],[88.712,36.368],[88.522,36.414],[88.459,36.449],[88.0,36.428],[87.925,36.383],[87.571,36.334],[87.346,36.374],[87.194,36.304],[87.001,36.274],[86.787,36.26],[86.714,36.231],[86.459,36.219],[86.4,36.17],[86.212,36.116],[86.087,35.876],[85.93,35.762],[85.717,35.759],[85.62,35.675],[85.389,35.757],[85.26,35.73],[85.15,35.75],[84.924,35.689],[84.778,35.6],[84.563,35.559],[84.215,35.389],[84.133,35.378],[83.984,35.416],[83.871,35.375],[83.565,35.361],[83.453,35.394],[83.246,35.421],[83.099,35.413],[82.972,35.49],[82.978,35.601],[82.936,35.674],[82.785,35.685],[82.71,35.65],[82.428,35.69],[82.319,35.634],[82.289,35.545],[82.086,35.448],[82.002,35.319],[81.711,35.246],[81.545,35.252],[81.462,35.31],[81.357,35.332],[81.21,35.317],[81.061,35.389],[80.979,35.293],[80.858,35.347],[80.766,35.343],[80.656,35.384],[80.486,35.404],[80.319,35.509],[80.263,35.436],[80.176,35.253],[80.014,35.086],[80.047,35.018],[79.884,34.92],[79.956,34.685],[79.794,34.431],[79.717,34.413],[79.513,34.472],[79.338,34.431],[79.204,34.439],[78.947,34.336]]]]}}]}