{"type":"FeatureCollection","features":[{"type":"Feature","properties":{"id":"golan","de_jure":"SYR","occupier":"ISR","name_tr":"Golan Tepeleri","name_en":"Golan Heights","note_tr":"Türkiye'ye göre işgal altındaki Suriye toprağıdır (BMGK 497).","note_en":"Per Türkiye, occupied Syrian territory (UNSC 497).","sources":["https://undocs.org/S/RES/497(1981)"],"basis":"Natural Earth 1:50m breakaway/disputed areas (public domain)"},"geometry":{"type":"MultiPolygon","coordinates":[[[[35.8419,32.876],[35.8333,32.8201],[35.7873,32.7349],[35.7344,32.7289],[35.6112,32.6821],[35.5917,32.7227],[35.6081,32.7598],[35.6357,32.8073],[35.6329,32.8666],[35.6145,32.8909],[35.5886,32.9528],[35.5773,33.0096],[35.6006,33.0396],[35.6353,33.1183],[35.6407,33.2002],[35.6029,33.2406],[35.6272,33.275],[35.7344,33.3326],[35.7875,33.3698],[35.8407,33.4157],[35.8161,33.3619],[35.7925,33.3341],[35.785,33.2911],[35.8,33.2561],[35.8086,33.2086],[35.8268,33.1951],[35.8334,33.1611],[35.8172,33.1332],[35.8247,33.108],[35.8451,33.0847],[35.859,32.9902],[35.888,32.9444],[35.8419,32.876]]]]}},{"type":"Feature","properties":{"id":"crimea","de_jure":"UKR","occupier":"RUS","name_tr":"Kırım","name_en":"Crimea","note_tr":"Türkiye Kırım'ın ilhakını tanımaz; Ukrayna toprağıdır (BMGK 68/262).","note_en":"Türkiye does not recognise the annexation of Crimea; it is Ukrainian territory (UNGA 68/262).","sources":["https://undocs.org/A/RES/68/262"],"basis":"Natural Earth 1:50m breakaway/disputed areas (public domain)"},"geometry":{"type":"MultiPolygon","coordinates":[[[[35.0017,45.7334],[35.0229,45.701],[35.2602,45.4469],[35.3739,45.3536],[35.4575,45.3163],[35.558,45.3109],[35.751,45.3894],[35.8335,45.4016],[36.0129,45.3717],[36.0771,45.4241],[36.1705,45.4531],[36.2903,45.4567],[36.4271,45.4333],[36.575,45.3936],[36.5143,45.3038],[36.4508,45.2323],[36.4284,45.1533],[36.3934,45.0654],[36.2299,45.026],[36.0548,45.0308],[35.8701,45.0053],[35.8036,45.0396],[35.7595,45.0709],[35.6775,45.102],[35.5695,45.1193],[35.4726,45.0985],[35.3578,44.9784],[35.1548,44.8963],[35.0877,44.8026],[34.8878,44.8236],[34.7169,44.8071],[34.4699,44.7217],[34.2817,44.5384],[34.0744,44.4238],[33.91,44.3876],[33.7557,44.3989],[33.6559,44.4332],[33.4507,44.5537],[33.4627,44.5968],[33.4913,44.6186],[33.5301,44.6805],[33.6122,44.9078],[33.6012,44.9815],[33.5552,45.0977],[33.3925,45.1878],[33.2615,45.1708],[33.1869,45.1948],[32.9187,45.3481],[32.7727,45.359],[32.6113,45.3281],[32.5519,45.3504],[32.508,45.4038],[32.828,45.593],[33.1423,45.7492],[33.2801,45.7652],[33.4662,45.8379],[33.6648,45.9471],[33.6367,46.0329],[33.5941,46.0962],[33.6543,46.1462],[33.66,46.2196],[33.8067,46.2083],[34.0267,46.1067],[34.1283,46.0898],[34.2242,46.1011],[34.354,46.0616],[34.4499,45.9657],[34.5232,45.977],[34.6869,45.977],[34.7941,45.8923],[34.7997,45.7908],[34.9464,45.7287],[35.0017,45.7334]]]]}}]}