{"type": "FeatureCollection", "name": "islands-tur", "description": "Türkiye's islands for labelling; see MARITIME-SOURCES.md.","features":[
{"type":"Feature","properties":{"name_tr":"Gökçeada","name_en":"Gökçeada (Imbros)","kind":"island","status":"tur","wikidata":"Q658437","sources":["https://www.wikidata.org/wiki/Q658437","https://en.wikipedia.org/wiki/Imbros"]},"geometry":{"type":"Point","coordinates":[25.8289,40.1626]}},
{"type":"Feature","properties":{"name_tr":"Bozcaada","name_en":"Bozcaada (Tenedos)","kind":"island","status":"tur","wikidata":"Q211817","sources":["https://www.wikidata.org/wiki/Q211817","https://en.wikipedia.org/wiki/Tenedos"]},"geometry":{"type":"Point","coordinates":[26.05,39.8167]}},
{"type":"Feature","properties":{"name_tr":"Tavşan Adaları","name_en":"Rabbit Islands (Tavşan Adaları)","kind":"island","status":"tur","wikidata":"Q6977903","sources":["https://www.wikidata.org/wiki/Q6977903","https://tr.wikipedia.org/wiki/Karayer_Adaları"]},"geometry":{"type":"Point","coordinates":[26.0667,39.9347]}},
{"type":"Feature","properties":{"name_tr":"Marmara Adası","name_en":"Marmara Island","kind":"island","status":"tur","wikidata":"Q950908","sources":["https://www.wikidata.org/wiki/Q950908","https://en.wikipedia.org/wiki/Marmara_Island"]},"geometry":{"type":"Point","coordinates":[27.63,40.6225]}},
{"type":"Feature","properties":{"name_tr":"Avşa","name_en":"Avşa Island","kind":"island","status":"tur","wikidata":"Q791572","sources":["https://www.wikidata.org/wiki/Q791572","https://en.wikipedia.org/wiki/Avşa"]},"geometry":{"type":"Point","coordinates":[27.5114,40.5067]}},
{"type":"Feature","properties":{"name_tr":"Büyükada","name_en":"Büyükada","kind":"island","status":"tur","wikidata":"Q989883","sources":["https://www.wikidata.org/wiki/Q989883","https://en.wikipedia.org/wiki/Büyükada"]},"geometry":{"type":"Point","coordinates":[29.12,40.8578]}},
{"type":"Feature","properties":{"name_tr":"Cunda (Alibey) Adası","name_en":"Cunda (Alibey) Island","kind":"island","status":"tur","wikidata":"Q2740733","sources":["https://www.wikidata.org/wiki/Q2740733","https://en.wikipedia.org/wiki/Cunda_Island"]},"geometry":{"type":"Point","coordinates":[26.6428,39.3606]}},
{"type":"Feature","properties":{"name_tr":"Uzunada","name_en":"Uzunada","kind":"island","status":"tur","wikidata":"Q3084314","sources":["https://www.wikidata.org/wiki/Q3084314","https://en.wikipedia.org/wiki/Uzunada"]},"geometry":{"type":"Point","coordinates":[26.7139,38.5017]}},
{"type":"Feature","properties":{"name_tr":"Karaada (Bodrum)","name_en":"Karaada (Bodrum)","kind":"island","status":"tur","wikidata":"Q2254939","sources":["https://www.wikidata.org/wiki/Q2254939","https://en.wikipedia.org/wiki/Kara_Ada_(Bodrum)"]},"geometry":{"type":"Point","coordinates":[27.4625,36.9739]}},
{"type":"Feature","properties":{"name_tr":"Kekova Adası","name_en":"Kekova Island","kind":"island","status":"tur","wikidata":"Q2666727","sources":["https://www.wikidata.org/wiki/Q2666727","https://en.wikipedia.org/wiki/Kekova"]},"geometry":{"type":"Point","coordinates":[29.8833,36.1833]}},
{"type":"Feature","properties":{"name_tr":"Kardak Kayalıkları","name_en":"Kardak Rocks (Imia)","kind":"rocks","status":"tur-position","position_tr":"Türkiye'nin tutumu","position_en":"Türkiye's position","contested":true,"contested_by":["Greece"],"basis_tr":"Türkiye'nin tutumu (T.C. Dışişleri Bakanlığı): Ege'de uluslararası antlaşmalarla Yunanistan'a devredilmemiş ada, adacık ve kayalıklar (EGAYDAAK) bulunmaktadır; statüsü uluslararası belgelerle açıkça belirlenmemiş küçük ada, adacık ve kayalıkların aidiyeti henüz anlaşmayla belirlenmemiştir. Kardak Kayalıkları Türkiye kıyısından 3,8 mil uzaklıktadır. (Bakanlığın İngilizce metninden çeviri.) Yunanistan bu görüşe katılmamakta ve kayalıkları 'Imia' adıyla kendi egemenliğinde saymaktadır.","basis_en":"Türkiye's position (Ministry of Foreign Affairs): there are islands, islets and rocks in the Aegean whose ownership was not ceded to Greece by international treaties; \"the possession of small islands, islets and rocks in the Aegean the status of which have not been clearly defined by international documents has yet to be determined by agreement.\" The Kardak Rocks lie 3.8 miles off Türkiye's coast. Greece rejects this position and regards the rocks ('Imia') as Greek territory.","wikidata":"Q2119012","sources":["https://www.mfa.gov.tr/the-kardak-dispute.en.mfa","https://www.mfa.gov.tr/islands_-islets-and-rocks-in-the-aegean-which-were-not-ceded-to-greece-by-international-treaties.en.mfa","https://www.wikidata.org/wiki/Q2119012","https://en.wikipedia.org/wiki/Imia"]},"geometry":{"type":"Point","coordinates":[27.1511,37.0508]}}
]}
