{"type": "FeatureCollection", "name": "maritime-tur", "description": "Türkiye's maritime jurisdiction areas and notified limits. Mediterranean lines are Türkiye's position as notified to the UN (A/74/550, A/74/757) and the Türkiye–Libya MoU; see MARITIME-SOURCES.md.","features":[
{"type":"Feature","properties":{"id":"tur-blacksea-eez","name_tr":"Karadeniz: Türkiye'nin münhasır ekonomik bölgesi ve kıta sahanlığı","name_en":"Black Sea: Türkiye's exclusive economic zone and continental shelf","basis_tr":"1973 Türkiye–SSCB karasuları protokolü; 1978 Türkiye–SSCB kıta sahanlığı sınırlandırma anlaşması (UNTS 20344); bu hattı MEB için de geçerli kılan 1986/87 nota teatisi (UNTS 24690); 1997 Türkiye–Bulgaristan anlaşması (UNTS 36204); 1997 Türkiye–Gürcistan protokolü. MEB, 17 Aralık 1986 tarihli 86/11264 sayılı Bakanlar Kurulu Kararı ile ilan edildi.","basis_en":"1973 Turkey–USSR territorial-sea protocol; 1978 Turkey–USSR continental-shelf delimitation agreement (UNTS 20344); 1986/87 exchange of notes applying that line to the EEZ (UNTS 24690); 1997 Turkey–Bulgaria agreement (UNTS 36204); 1997 Turkey–Georgia protocol. EEZ declared by Council of Ministers Decree 86/11264 of 17 December 1986.","status":"agreed","contested":false,"geometry_source":"Marine Regions (VLIZ) Maritime Boundaries, 'Turkish Exclusive Economic Zone' (MRGID 5697), clipped to the Black Sea; includes the territorial sea","attribution":"© Flanders Marine Institute (VLIZ), MarineRegions.org — CC BY 4.0","sources":["https://www.un.org/depts/los/LEGISLATIONANDTREATIES/STATEFILES/TUR.htm","https://www.un.org/depts/los/LEGISLATIONANDTREATIES/PDFFILES/TREATIES/GEO-TUR1973MB.PDF","https://www.un.org/depts/los/LEGISLATIONANDTREATIES/PDFFILES/TREATIES/TUR-RUS1978CS.PDF","https://www.un.org/depts/los/LEGISLATIONANDTREATIES/PDFFILES/TREATIES/RUS-TUR1987EZ.PDF","https://www.un.org/depts/los/LEGISLATIONANDTREATIES/PDFFILES/TREATIES/TUR-BGR1997MB.PDF","https://www.un.org/depts/los/LEGISLATIONANDTREATIES/PDFFILES/TREATIES/TUR-GEO1997BS.PDF","https://www.un.org/depts/los/LEGISLATIONANDTREATIES/PDFFILES/TUR_1986_Decree.pdf","https://www.marineregions.org/gazetteer.php?p=details&id=5697","https://www.marineregions.org/disclaimer.php"]},"geometry":{"type":"Polygon","coordinates":[[[39.0036,42.3375],[38.5361,42.4244],[36.845,43.1819],[36.1825,43.4344],[35.5069,43.4356],[34.2197,43.1881],[33.6156,43.1972],[32.0,43.3453],[31.3467,43.4497],[31.3453,43.4469],[31.1092,43.3317],[30.7517,42.9453],[30.605,42.8253],[30.5694,42.8008],[29.975,42.5575],[29.8267,42.49],[29.5722,42.44],[29.3458,42.2411],[28.3238,41.9813],[28.0403,41.9813],[28.0348,41.9782],[28.0315,41.9788],[28.0292,41.9826],[28.0273,41.9815],[28.0268,41.9747],[28.0327,41.9683],[28.0328,41.9659],[28.0364,41.9671],[28.0434,41.9624],[28.0436,41.9604],[28.0406,41.9571],[28.0455,41.9539],[28.0501,41.9455],[28.0491,41.9406],[28.0451,41.938],[28.0433,41.9334],[28.0477,41.9248],[28.047,41.9181],[28.0442,41.9138],[28.0475,41.9094],[28.0461,41.9077],[28.0485,41.9066],[28.0539,41.8982],[28.0578,41.8837],[28.0548,41.881],[28.0417,41.8805],[28.031,41.8866],[28.0083,41.8929],[28.0022,41.8912],[27.9948,41.8865],[27.9894,41.8807],[27.9895,41.878],[27.9848,41.8702],[27.9746,41.8678],[27.9712,41.8652],[27.9703,41.8623],[27.9728,41.8613],[27.973,41.8644],[27.9786,41.8654],[27.9768,41.8457],[27.979,41.8342],[27.9842,41.8186],[27.9963,41.7964],[28.0213,41.7704],[28.0226,41.7673],[28.0287,41.7647],[28.0311,41.7626],[28.0303,41.7611],[28.0337,41.7621],[28.0384,41.754],[28.0418,41.7529],[28.0423,41.7488],[28.0406,41.7481],[28.0434,41.7452],[28.0434,41.7413],[28.0449,41.7401],[28.04,41.738],[28.0414,41.7309],[28.0453,41.7304],[28.0457,41.7258],[28.0492,41.7212],[28.0557,41.7182],[28.0627,41.7122],[28.0645,41.7033],[28.0815,41.6903],[28.0887,41.6893],[28.0919,41.6868],[28.0934,41.682],[28.0994,41.6798],[28.1005,41.6735],[28.1057,41.6684],[28.097,41.6632],[28.0908,41.6629],[28.0875,41.6557],[28.0903,41.6455],[28.0931,41.642],[28.0918,41.6386],[28.0988,41.6368],[28.1,41.633],[28.0968,41.6311],[28.0989,41.6305],[28.1005,41.6271],[28.11,41.6223],[28.1124,41.6181],[28.1185,41.6156],[28.1215,41.6107],[28.1261,41.61],[28.129,41.6046],[28.1419,41.5989],[28.1601,41.58],[28.1662,41.579],[28.1664,41.5747],[28.1827,41.5716],[28.186,41.5671],[28.182,41.5653],[28.1814,41.5631],[28.1882,41.5583],[28.1854,41.5555],[28.1886,41.5524],[28.1932,41.5523],[28.1927,41.5478],[28.1989,41.5479],[28.1994,41.5452],[28.2057,41.5388],[28.2215,41.5295],[28.2198,41.5282],[28.2251,41.5244],[28.2314,41.5238],[28.2331,41.5195],[28.2406,41.5158],[28.2474,41.5144],[28.248,41.5118],[28.3314,41.4724],[28.3336,41.4729],[28.3504,41.464],[28.4084,41.4397],[28.6008,41.3775],[28.7599,41.3201],[28.7625,41.3206],[28.7687,41.317],[28.8049,41.3039],[28.8116,41.3051],[28.8216,41.2994],[28.8213,41.298],[28.8275,41.2957],[28.8292,41.2976],[28.8305,41.2947],[28.8663,41.2818],[28.8732,41.2842],[28.8744,41.2829],[28.874,41.279],[28.8967,41.2708],[28.9236,41.2717],[28.9435,41.2629],[28.9552,41.2631],[28.9632,41.2599],[28.9651,41.2569],[29.0076,41.2497],[29.0129,41.2481],[29.0155,41.2455],[29.0327,41.246],[29.038,41.2539],[29.0376,41.2576],[29.0418,41.2554],[29.0489,41.2568],[29.0755,41.2517],[29.0776,41.2543],[29.0799,41.2505],[29.0939,41.2464],[29.1009,41.2413],[29.1072,41.239],[29.1068,41.2371],[29.112,41.2376],[29.11,41.2349],[29.1162,41.2338],[29.1157,41.2286],[29.114,41.2289],[29.1071,41.2209],[29.1087,41.2167],[29.139,41.2167],[29.1697,41.2331],[29.2062,41.2292],[29.2162,41.2394],[29.2318,41.2407],[29.4196,41.2143],[29.6066,41.1811],[29.6094,41.1822],[29.6188,41.1789],[29.6242,41.1798],[29.625,41.1782],[29.8846,41.149],[30.1369,41.1438],[30.1652,41.1466],[30.1777,41.1508],[30.1787,41.1533],[30.1805,41.1518],[30.1917,41.158],[30.1909,41.16],[30.1927,41.1618],[30.1985,41.1618],[30.2035,41.1645],[30.2171,41.1671],[30.2232,41.1709],[30.2201,41.1723],[30.2207,41.1765],[30.2271,41.1788],[30.2264,41.176],[30.2281,41.1757],[30.2308,41.18],[30.2302,41.1833],[30.2248,41.1849],[30.2242,41.1863],[30.2344,41.1889],[30.2367,41.188],[30.2405,41.1923],[30.2483,41.1876],[30.2622,41.1998],[30.2629,41.2075],[30.2688,41.2093],[30.2706,41.2121],[30.2825,41.2155],[30.2956,41.2074],[30.3367,41.2008],[30.37,41.1813],[30.6992,41.1215],[30.7324,41.0994],[30.7481,41.092],[30.8333,41.0799],[31.0902,41.0851],[31.1152,41.096],[31.1248,41.0981],[31.1371,41.0976],[31.162,41.0927],[31.2169,41.0979],[31.2444,41.1032],[31.2902,41.1179],[31.3236,41.1339],[31.3452,41.1498],[31.3454,41.1544],[31.3835,41.1807],[31.3829,41.1867],[31.3845,41.1895],[31.3835,41.1938],[31.3858,41.195],[31.385,41.1931],[31.3871,41.1918],[31.4014,41.2033],[31.4052,41.2221],[31.4025,41.2242],[31.4049,41.2338],[31.4042,41.2424],[31.4028,41.2437],[31.4056,41.247],[31.4079,41.2603],[31.4025,41.2713],[31.4033,41.272],[31.406,41.2692],[31.408,41.2646],[31.4132,41.2656],[31.4155,41.264],[31.4169,41.2671],[31.4151,41.2686],[31.4176,41.2691],[31.4193,41.2789],[31.4132,41.2823],[31.4111,41.2813],[31.41,41.2874],[31.4059,41.2884],[31.4009,41.2858],[31.3955,41.2868],[31.3915,41.2938],[31.3935,41.3],[31.3919,41.3017],[31.3919,41.3058],[31.3961,41.3079],[31.3974,41.3101],[31.3962,41.3129],[31.4001,41.3158],[31.4278,41.3227],[31.4323,41.3263],[31.4347,41.3258],[31.4357,41.3278],[31.4445,41.3265],[31.4553,41.3296],[31.4604,41.3263],[31.4631,41.3283],[31.4659,41.3278],[31.4707,41.337],[31.4785,41.3402],[31.4881,41.3493],[31.494,41.3504],[31.4988,41.3538],[31.5047,41.3559],[31.5115,41.3559],[31.5242,41.3615],[31.5282,41.3613],[31.5324,41.3646],[31.5364,41.3654],[31.5411,41.3634],[31.5529,41.3668],[31.5602,41.372],[31.5711,41.3722],[31.6265,41.3884],[31.6363,41.3924],[31.6364,41.3939],[31.64,41.3955],[31.6406,41.3982],[31.6471,41.3987],[31.6616,41.4059],[31.67,41.4069],[31.673,41.4098],[31.6802,41.4109],[31.6815,41.4092],[31.704,41.4205],[31.706,41.4231],[31.7094,41.4232],[31.7211,41.4291],[31.7322,41.4368],[31.7401,41.4386],[31.7524,41.4448],[31.7518,41.4498],[31.7546,41.4549],[31.7652,41.4564],[31.7729,41.4551],[31.7857,41.4615],[31.7866,41.4651],[31.7926,41.4682],[31.7945,41.4659],[31.7994,41.4684],[31.7972,41.4701],[31.8023,41.4712],[31.8014,41.4737],[31.8141,41.4762],[31.8177,41.4794],[31.8274,41.483],[31.8305,41.4859],[31.8306,41.4908],[31.846,41.4985],[31.8437,41.4988],[31.844,41.5],[31.8609,41.5053],[31.8679,41.5102],[31.8726,41.5104],[31.8897,41.5169],[31.8934,41.5186],[31.8949,41.5213],[31.8969,41.5195],[31.8997,41.5206],[31.894,41.5227],[31.8948,41.5238],[31.8994,41.5231],[31.9022,41.5205],[31.9062,41.5205],[31.9098,41.5234],[31.913,41.5235],[31.9298,41.5321],[31.9325,41.5308],[31.9355,41.5314],[31.935,41.5333],[31.9413,41.5324],[31.9447,41.5351],[31.9536,41.5349],[31.9679,41.5425],[31.9779,41.5438],[31.9933,41.5495],[32.0292,41.5709],[32.0295,41.5744],[32.0529,41.579],[32.0524,41.5815],[32.0552,41.5796],[32.11,41.5951],[32.1272,41.5977],[32.1424,41.6035],[32.1454,41.6073],[32.1488,41.6063],[32.1553,41.6113],[32.1539,41.6131],[32.1569,41.614],[32.1618,41.6207],[32.1692,41.623],[32.18,41.6383],[32.1737,41.6406],[32.1886,41.6457],[32.1937,41.6501],[32.193,41.6524],[32.1983,41.6541],[32.2265,41.6783],[32.2236,41.6799],[32.2261,41.6812],[32.2241,41.6832],[32.2271,41.684],[32.2249,41.6855],[32.2296,41.6862],[32.2334,41.6843],[32.2345,41.6852],[32.2319,41.6857],[32.2321,41.6883],[32.2434,41.6929],[32.2634,41.7202],[32.297,41.7274],[32.3409,41.729],[32.3393,41.7303],[32.3413,41.7327],[32.3471,41.7331],[32.346,41.7353],[32.3508,41.736],[32.3533,41.7344],[32.3537,41.7357],[32.3641,41.7388],[32.3633,41.7401],[32.3652,41.7443],[32.3694,41.7457],[32.3728,41.744],[32.3772,41.7541],[32.3826,41.7561],[32.3873,41.7537],[32.3895,41.755],[32.3893,41.7516],[32.3997,41.7425],[32.4172,41.7489],[32.4237,41.7543],[32.4236,41.7566],[32.4281,41.758],[32.4304,41.7624],[32.4543,41.7772],[32.5008,41.7957],[32.499,41.8012],[32.5014,41.8014],[32.5041,41.7985],[32.5047,41.8013],[32.5128,41.8061],[32.5278,41.8071],[32.5484,41.8157],[32.5628,41.8169],[32.5747,41.8125],[32.5775,41.815],[32.5779,41.8258],[32.5911,41.8279],[32.6126,41.8395],[32.6397,41.8439],[32.6631,41.8349],[32.6792,41.8363],[32.7126,41.8455],[32.7168,41.8482],[32.7198,41.8475],[32.7404,41.8532],[32.7554,41.8591],[32.7703,41.858],[32.7842,41.8599],[32.7985,41.8597],[32.8275,41.8647],[32.8446,41.8728],[32.8556,41.8683],[32.9261,41.8818],[32.9619,41.8941],[32.9814,41.9039],[32.9822,41.907],[32.9935,41.91],[33.0081,41.9173],[33.0273,41.9222],[33.0278,41.9271],[33.0381,41.9288],[33.0439,41.9317],[33.0476,41.9311],[33.0491,41.933],[33.0665,41.9345],[33.0709,41.9369],[33.085,41.9391],[33.0964,41.9429],[33.1056,41.9433],[33.107,41.945],[33.1145,41.9472],[33.1317,41.9501],[33.135,41.9493],[33.1655,41.957],[33.172,41.9595],[33.1796,41.9667],[33.1822,41.9658],[33.1903,41.9677],[33.1931,41.9712],[33.1978,41.9716],[33.2022,41.9746],[33.2039,41.9736],[33.2074,41.9747],[33.2132,41.9797],[33.2202,41.9786],[33.2251,41.9802],[33.3245,42.019],[33.3609,42.0207],[33.4343,42.0106],[33.4424,42.0125],[33.4472,42.0106],[33.4552,42.012],[33.4608,42.0106],[33.5405,42.0106],[33.5632,42.0077],[33.6135,41.9937],[33.8272,41.9777],[33.8452,41.9827],[33.8735,41.9744],[34.0036,41.9827],[34.0187,41.9811],[34.0225,41.9824],[34.0249,41.9804],[34.0365,41.9792],[34.0441,41.9798],[34.0464,41.9818],[34.0501,41.9794],[34.0561,41.9806],[34.0722,41.9784],[34.0955,41.979],[34.105,41.978],[34.1351,41.97],[34.1611,41.9672],[34.1635,41.9657],[34.1672,41.9665],[34.1733,41.9647],[34.3313,41.9479],[34.3392,41.9514],[34.3427,41.9504],[34.4455,41.9728],[34.4827,41.9752],[34.4878,41.9742],[34.4901,41.9765],[34.527,41.9606],[34.5618,41.9518],[34.6951,41.946],[34.7463,41.9504],[34.7986,41.9622],[34.8151,41.9691],[34.8529,41.9915],[34.8831,42.0051],[34.9125,42.0297],[34.9195,42.0379],[34.92,42.0407],[34.9241,42.044],[34.924,42.0482],[34.9296,42.0514],[34.9419,42.0693],[34.9465,42.0912],[34.9426,42.0937],[34.9447,42.0956],[34.9441,42.0976],[34.9481,42.0988],[34.9599,42.0956],[34.9664,42.0964],[34.9704,42.0941],[34.9791,42.0927],[34.9814,42.0945],[34.9832,42.0927],[34.9881,42.0948],[35.0023,42.091],[35.0101,42.0928],[35.0239,42.0925],[35.0311,42.0806],[35.0488,42.0651],[35.0463,42.0609],[35.0516,42.0596],[35.0483,42.0534],[35.0444,42.0544],[35.0444,42.0516],[35.0816,42.0292],[35.0999,42.0233],[35.1365,42.0249],[35.1442,42.0285],[35.1604,42.0415],[35.1712,42.0441],[35.1895,42.0419],[35.2163,42.0236],[35.2163,42.0168],[35.2109,42.0173],[35.2064,42.0127],[35.1951,42.0161],[35.1895,42.0146],[35.1798,42.0151],[35.1564,42.0212],[35.1375,42.0195],[35.1169,42.007],[35.1087,41.99],[35.1064,41.9759],[35.0996,41.9717],[35.0988,41.9697],[35.0953,41.9556],[35.0947,41.9457],[35.0929,41.9448],[35.0921,41.928],[35.0986,41.9127],[35.1216,41.881],[35.1259,41.8789],[35.1272,41.8739],[35.1558,41.8457],[35.2095,41.8113],[35.2095,41.8045],[35.2047,41.8045],[35.2074,41.8025],[35.2066,41.7995],[35.2032,41.801],[35.2025,41.7991],[35.198,41.7999],[35.2118,41.7754],[35.2248,41.7619],[35.2536,41.7506],[35.2826,41.7242],[35.2982,41.7152],[35.3577,41.6968],[35.4011,41.6916],[35.4173,41.6834],[35.4491,41.6605],[35.4859,41.6451],[35.5295,41.6344],[35.5667,41.6308],[35.6336,41.637],[35.6787,41.6569],[35.7406,41.665],[35.8462,41.6987],[35.8661,41.701],[35.8711,41.7044],[35.8719,41.7032],[35.9112,41.7181],[35.9348,41.7324],[35.9568,41.7363],[35.9568,41.7326],[35.959,41.7295],[35.9577,41.7332],[35.9635,41.7329],[35.9733,41.7287],[35.9779,41.7297],[36.0071,41.7094],[36.0381,41.6964],[36.0381,41.7015],[36.0449,41.7015],[36.1205,41.6278],[36.1345,41.5991],[36.1345,41.5582],[36.1308,41.5478],[36.1278,41.5244],[36.1203,41.5096],[36.12,41.4943],[36.1238,41.4792],[36.1345,41.4619],[36.1789,41.42],[36.2048,41.4065],[36.2249,41.3766],[36.2311,41.3728],[36.2319,41.3662],[36.2368,41.3589],[36.2533,41.3488],[36.3034,41.3285],[36.3171,41.3272],[36.3329,41.3228],[36.3389,41.3188],[36.3386,41.3146],[36.3556,41.3102],[36.355,41.3091],[36.3419,41.3122],[36.3418,41.3086],[36.3401,41.307],[36.3405,41.3005],[36.3438,41.2887],[36.3475,41.287],[36.347,41.2948],[36.3481,41.2958],[36.3484,41.2859],[36.3745,41.277],[36.3799,41.2724],[36.382,41.2727],[36.3807,41.2715],[36.395,41.2564],[36.405,41.2536],[36.4238,41.2517],[36.4325,41.2462],[36.4388,41.2442],[36.4557,41.2452],[36.4569,41.2503],[36.4578,41.2455],[36.4776,41.2474],[36.4812,41.25],[36.4946,41.2528],[36.5179,41.2626],[36.5708,41.2979],[36.5765,41.3041],[36.5825,41.3171],[36.6019,41.3437],[36.6087,41.3649],[36.6067,41.3663],[36.6199,41.3751],[36.632,41.3742],[36.6407,41.3798],[36.6517,41.3834],[36.6542,41.3817],[36.6583,41.3729],[36.6582,41.3682],[36.6619,41.3676],[36.6617,41.3812],[36.6756,41.3732],[36.6933,41.3663],[36.7581,41.3663],[36.8367,41.3508],[36.9849,41.2945],[37.0153,41.2746],[37.0319,41.2428],[37.0339,41.1988],[37.0394,41.1825],[37.0431,41.1801],[37.0564,41.1745],[37.0775,41.1708],[37.1092,41.1562],[37.1352,41.1493],[37.1685,41.1469],[37.1713,41.1481],[37.173,41.147],[37.2634,41.1479],[37.277,41.145],[37.2808,41.1466],[37.2863,41.145],[37.2929,41.1455],[37.295,41.1413],[37.2993,41.1404],[37.3224,41.1241],[37.3335,41.1193],[37.3471,41.1172],[37.349,41.1159],[37.347,41.1161],[37.3545,41.1142],[37.3779,41.1125],[37.3954,41.1085],[37.4194,41.0876],[37.4365,41.0777],[37.4775,41.0678],[37.4813,41.0622],[37.5047,41.0429],[37.5248,41.0372],[37.5647,41.0405],[37.5806,41.0368],[37.5864,41.0422],[37.6004,41.0463],[37.6079,41.0504],[37.6143,41.0591],[37.614,41.0635],[37.6169,41.07],[37.6254,41.0793],[37.6401,41.1015],[37.655,41.1176],[37.672,41.1313],[37.6898,41.1404],[37.6985,41.1241],[37.7151,41.1147],[37.7254,41.1153],[37.7293,41.1177],[37.7299,41.1151],[37.7331,41.1147],[37.7512,41.1261],[37.7581,41.1193],[37.7839,41.1226],[37.784,41.1163],[37.787,41.1164],[37.7891,41.1109],[37.7844,41.0991],[37.7852,41.06],[37.8027,41.0429],[37.8543,41.0237],[37.8679,41.0156],[37.8783,41.0056],[37.8939,40.9846],[37.9017,40.9841],[37.9347,40.9951],[37.9817,40.9902],[38.0892,40.963],[38.0978,40.963],[38.1092,40.9588],[38.1613,40.9521],[38.2014,40.9414],[38.2241,40.9411],[38.2683,40.9504],[38.2874,40.9472],[38.3309,40.9179],[38.3512,40.9179],[38.3893,40.9269],[38.4268,40.9186],[38.4523,40.9167],[38.4637,40.9238],[38.5394,40.9269],[38.5549,40.935],[38.5916,40.9626],[38.6047,40.9685],[38.6371,40.976],[38.6493,40.9753],[38.6554,40.9711],[38.6772,40.9492],[38.6878,40.9527],[38.707,40.9529],[38.7176,40.9548],[38.7433,40.9725],[38.7551,40.9753],[38.7754,40.9934],[38.7791,40.9992],[38.7837,41.0018],[38.8116,41.0087],[38.8165,41.0112],[38.8188,41.0113],[38.8172,41.0096],[38.8758,41.0189],[38.8923,41.0271],[38.9084,41.0377],[38.9341,41.0435],[39.0418,41.0434],[39.1223,41.0573],[39.1565,41.0777],[39.1627,41.0791],[39.2012,41.0777],[39.22,41.0729],[39.2507,41.053],[39.2732,41.0504],[39.29,41.0548],[39.3172,41.0681],[39.3491,41.074],[39.3942,41.0942],[39.4182,41.11],[39.4302,41.1125],[39.4929,41.101],[39.5072,41.0901],[39.5326,41.0646],[39.5921,41.0251],[39.6301,41.0085],[39.6697,41.0026],[39.6898,41.0075],[39.7101,41.015],[39.73,41.0172],[39.7571,41.0023],[39.7902,41.0026],[39.7992,41.0003],[39.8238,40.9854],[39.83,40.9852],[39.8338,40.9812],[39.8337,40.9794],[39.8587,40.9643],[39.8765,40.9578],[39.8958,40.9548],[39.9119,40.9638],[39.9749,40.9803],[39.9994,40.9821],[40.0322,40.9588],[40.0435,40.9575],[40.0489,40.9541],[40.0524,40.9481],[40.0559,40.9458],[40.0521,40.9457],[40.0537,40.9436],[40.0857,40.9265],[40.126,40.9206],[40.1428,40.9228],[40.1725,40.9322],[40.1956,40.9363],[40.2315,40.9468],[40.2546,40.9587],[40.301,40.9685],[40.3154,40.9756],[40.3274,40.9863],[40.33,40.9909],[40.3592,41.0144],[40.3634,41.0147],[40.383,41.0253],[40.389,41.0265],[40.4145,41.0252],[40.4649,41.0504],[40.4958,41.0401],[40.5108,41.0409],[40.5197,41.0391],[40.509,41.0404],[40.5086,41.038],[40.5291,41.0363],[40.5574,41.0425],[40.5884,41.0573],[40.6261,41.0822],[40.6397,41.0852],[40.6707,41.088],[40.6859,41.092],[40.6983,41.0981],[40.7576,41.1584],[40.8275,41.1979],[40.8389,41.2012],[40.854,41.1993],[40.8968,41.1876],[40.922,41.1906],[40.9598,41.2106],[40.9761,41.2155],[40.9971,41.2177],[41.0203,41.2237],[41.0427,41.2325],[41.0614,41.2428],[41.1008,41.2742],[41.1213,41.2855],[41.1467,41.29],[41.1726,41.2912],[41.1908,41.2957],[41.285,41.3538],[41.3103,41.3608],[41.3318,41.3697],[41.3547,41.375],[41.359,41.3773],[41.3739,41.378],[41.3787,41.3765],[41.3904,41.3794],[41.4089,41.3903],[41.4242,41.4079],[41.4343,41.4291],[41.4382,41.4514],[41.4486,41.4562],[41.5071,41.4954],[41.5291,41.5254],[41.2758,41.5947],[40.6925,41.95],[40.4333,42.0311],[39.8269,42.1392],[39.0036,42.3375]],[[30.2576,41.2177],[30.264,41.2174],[30.2601,41.2145],[30.256,41.2152],[30.2576,41.2177]],[[36.6599,41.3801],[36.6612,41.3749],[36.6589,41.3746],[36.6558,41.3788],[36.6599,41.3801]],[[38.4357,40.9302],[38.4378,40.9303],[38.4386,40.9285],[38.4356,40.9285],[38.4357,40.9302]]]}},
{"type":"Feature","properties":{"id":"tur-med-cs-a74550-a","name_tr":"Doğu Akdeniz: Türkiye kıta sahanlığı dış sınırı (Türkiye–KKTC hattı, 32°16'18\"D – 34°36'28\"D)","name_en":"Eastern Mediterranean: outer limit of Türkiye's continental shelf (Türkiye–TRNC line, 32°16'18\"E – 34°36'28\"E)","basis_tr":"Türkiye'nin BM'ye bildirdiği koordinatlar (A/74/550, ek, bölüm A): 21 Eylül 2011 Türkiye–KKTC Kıta Sahanlığı Sınırlandırma Anlaşması ile belirlenen hat. KKTC'yi yalnızca Türkiye tanır; hat GKRY ve Yunanistan tarafından itiraz edilmektedir.","basis_en":"Coordinates notified by Türkiye to the UN (A/74/550, annex, section A): line established by the Türkiye–TRNC Continental Shelf Delimitation Agreement of 21 September 2011. The TRNC is recognised only by Türkiye; the line is contested by the Greek Cypriot Administration and Greece.","status":"claimed","position_tr":"Türkiye'nin tutumu","position_en":"Türkiye's position","contested":true,"contested_by":["GKRY / Republic of Cyprus","Greece"],"geometry_kind":"limit-line","sources":["https://www.un.org/depts/los/LEGISLATIONANDTREATIES/STATEFILES/TUR.htm","https://documents.un.org/api/symbol/access?l=en&t=pdf&s=A/74/550"]},"geometry":{"type":"LineString","coordinates":[[32.2717,35.5527],[32.3534,35.5616],[32.5308,35.5631],[32.6311,35.594],[32.7762,35.6328],[32.9435,35.6649],[33.0472,35.6833],[33.1721,35.682],[33.3278,35.6887],[33.3885,35.6829],[33.5427,35.6874],[33.6378,35.6961],[33.7524,35.7012],[33.8836,35.7082],[34.0467,35.7307],[34.1019,35.7518],[34.1703,35.7624],[34.2393,35.8033],[34.3143,35.8297],[34.4143,35.8615],[34.4788,35.8825],[34.5585,35.9071],[34.6079,35.9117]]}},
{"type":"Feature","properties":{"id":"tur-med-cs-a74550-b","name_tr":"Doğu Akdeniz: Türkiye kıta sahanlığı dış sınırı (Türkiye–Mısır kıyıları arası orta hat, 28°D – 32°16'18\"D)","name_en":"Eastern Mediterranean: outer limit of Türkiye's continental shelf (median line between the Turkish and Egyptian coasts, 28°E – 32°16'18\"E)","basis_tr":"Türkiye'nin BM'ye bildirdiği koordinatlar (A/74/550, ek, bölüm B, A–N noktaları). Belgeye göre Türkiye ile Mısır arasında yapılacak ikili anlaşmaya tabidir ve gelecekteki sınırlandırma anlaşmalarına göre gözden geçirilebilir.","basis_en":"Coordinates notified by Türkiye to the UN (A/74/550, annex, section B, points A–N). Per the document, subject to a bilateral agreement to be reached between Turkey and Egypt, and open to review in the light of future delimitation agreements.","status":"claimed","position_tr":"Türkiye'nin tutumu","position_en":"Türkiye's position","contested":true,"contested_by":["Greece","GKRY / Republic of Cyprus","Egypt"],"geometry_kind":"limit-line","sources":["https://www.un.org/depts/los/LEGISLATIONANDTREATIES/STATEFILES/TUR.htm","https://documents.un.org/api/symbol/access?l=en&t=pdf&s=A/74/550"]},"geometry":{"type":"LineString","coordinates":[[28.0,33.8844],[28.3758,33.7772],[28.6873,33.703],[28.7734,33.681],[29.3384,33.7452],[30.2412,33.8311],[30.3094,33.8447],[30.8916,33.9001],[31.0722,33.9162],[31.3577,33.945],[31.7314,33.865],[31.7733,33.8551],[31.8847,33.8393],[32.2717,33.7845]]}},
{"type":"Feature","properties":{"id":"tur-med-cs-a74550-c","name_tr":"Doğu Akdeniz: Türkiye kıta sahanlığı dış sınırı (32°16'18\"D boylamı, yabancı karasuları hariç)","name_en":"Eastern Mediterranean: outer limit of Türkiye's continental shelf (meridian 32°16'18\"E, excluding foreign territorial waters)","basis_tr":"A/74/550, ek, bölüm C: 35-33-09.584K ile 33-47-04.112K noktalarını 32°16'18\"D boylamında birleştiren düz hat, 'yabancı karasuları hariç'. Kıbrıs adasının 12 deniz millik karasuları Marine Regions verisiyle (CC BY 4.0) çıkarılmıştır.","basis_en":"A/74/550, annex, section C: straight line joining 35-33-09.584N and 33-47-04.112N along 32°16'18\"E, 'except foreign territorial waters'. The island of Cyprus's 12-nm territorial sea is removed using Marine Regions data (CC BY 4.0).","status":"claimed","position_tr":"Türkiye'nin tutumu","position_en":"Türkiye's position","contested":true,"contested_by":["GKRY / Republic of Cyprus","Greece"],"geometry_kind":"limit-line","attribution":"Cyprus 12 nm cut-out: © Flanders Marine Institute (VLIZ), MarineRegions.org — CC BY 4.0","sources":["https://www.un.org/depts/los/LEGISLATIONANDTREATIES/STATEFILES/TUR.htm","https://documents.un.org/api/symbol/access?l=en&t=pdf&s=A/74/550","https://www.marineregions.org/disclaimer.php"]},"geometry":{"type":"MultiLineString","coordinates":[[[32.2717,33.7845],[32.2717,34.5846]],[[32.2717,35.0361],[32.2717,35.0783]],[[32.2717,35.3139],[32.2717,35.5527]]]}},
{"type":"Feature","properties":{"id":"tur-med-libya-mou","name_tr":"Türkiye–Libya Deniz Yetki Alanları Mutabakat Muhtırası sınırı (27 Kasım 2019)","name_en":"Türkiye–Libya Memorandum of Understanding boundary on maritime jurisdiction areas (27 November 2019)","basis_tr":"Mutabakat Muhtırası Madde I(1): kıta sahanlığı ve MEB sınırı A noktası (34°16'13.720\"K – 026°19'11.640\"D) ile B noktası (34°09'07.9\"K – 026°39'06.3\"D) arasında (WGS84). 8 Aralık 2019'da yürürlüğe girdi; BM tescil no. 56119. A/74/757'de aynı noktalar F ve E olarak anılır. İki taraflı olarak kabul edilmiş, ancak Yunanistan, GKRY ve Mısır tarafından itiraz edilmektedir.","basis_en":"MoU Article I(1): the continental shelf/EEZ boundary runs from Point A (34°16'13.720\"N – 026°19'11.640\"E) to Point B (34°09'07.9\"N – 026°39'06.3\"E) (WGS84). In force 8 December 2019; UN registration no. 56119. A/74/757 refers to the same points as F and E. Agreed bilaterally, but contested by Greece, the Greek Cypriot Administration and Egypt.","status":"agreed","position_tr":"Türkiye'nin tutumu","position_en":"Türkiye's position","contested":true,"agreement":"bilateral (Türkiye–Libya GNA)","contested_by":["Greece","GKRY / Republic of Cyprus","Egypt"],"geometry_kind":"limit-line","sources":["https://www.un.org/depts/los/LEGISLATIONANDTREATIES/STATEFILES/TUR.htm","https://www.un.org/depts/los/LEGISLATIONANDTREATIES/PDFFILES/TREATIES/Turkey_11122019_%28HC%29_MoU_Libya-Delimitation-areas-Mediterranean.pdf","https://documents.un.org/api/symbol/access?l=en&t=pdf&s=A/74/757"]},"geometry":{"type":"LineString","coordinates":[[26.3199,34.2705],[26.6518,34.1522]]}}
]}
