{"type":"FeatureCollection","name":"places-10m","description":"Cities shown on the dashboard when it is zoomed in. Source: Natural Earth 1:10m populated places (public domain), filtered to the dashboard's view. Turkish names are ours (tools/geo/place_names_tr.csv); `n` is Natural Earth's name, `tr` the Turkish one where we have it, `a` the ISO alpha-3 of the state Natural Earth assigns it to, `p` population, `r` scale rank, `cap` a national capital.","features":[{"type":"Feature","properties":{"n":"Abadan","a":"IRN","p":370180,"r":6},"geometry":{"type":"Point","coordinates":[48.28,30.331]}},{"type":"Feature","properties":{"n":"Abbottabad","a":"PAK","p":1183647,"r":8},"geometry":{"type":"Point","coordinates":[73.2,34.15]}},{"type":"Feature","properties":{"n":"Abu Dhabi","a":"ARE","p":603492,"r":3,"cap":1,"tr":"Abu Dabi"},"geometry":{"type":"Point","coordinates":[54.367,24.467]}},{"type":"Feature","properties":{"n":"Abu Kamal","a":"SYR","p":80808,"r":7,"tr":"Ebu Kemal"},"geometry":{"type":"Point","coordinates":[40.919,34.45]}},{"type":"Feature","properties":{"n":"Ad Diwaniyah","a":"IRQ","p":358408,"r":8,"tr":"Divaniye"},"geometry":{"type":"Point","coordinates":[44.924,31.989]}},{"type":"Feature","properties":{"n":"Ad Nabk","a":"SYR","p":50178,"r":7},"geometry":{"type":"Point","coordinates":[36.733,34.017]}},{"type":"Feature","properties":{"n":"Adana","a":"TUR","p":1293000,"r":4},"geometry":{"type":"Point","coordinates":[35.318,36.997]}},{"type":"Feature","properties":{"n":"Adapazarı","a":"TUR","p":260109,"r":6,"tr":"Adapazarı"},"geometry":{"type":"Point","coordinates":[30.415,40.8]}},{"type":"Feature","properties":{"n":"Adıyaman","a":"TUR","p":223744,"r":7},"geometry":{"type":"Point","coordinates":[38.28,37.77]}},{"type":"Feature","properties":{"n":"Afyon","a":"TUR","p":156992,"r":7,"tr":"Afyonkarahisar"},"geometry":{"type":"Point","coordinates":[30.55,38.75]}},{"type":"Feature","properties":{"n":"Agrinio","a":"GRC","p":75233,"r":7},"geometry":{"type":"Point","coordinates":[21.408,38.622]}},{"type":"Feature","properties":{"n":"Ahmedabad","a":"IND","p":5375000,"r":2},"geometry":{"type":"Point","coordinates":[72.578,23.032]}},{"type":"Feature","properties":{"n":"Ahvaz","a":"IRN","p":996000,"r":4,"tr":"Ahvaz"},"geometry":{"type":"Point","coordinates":[48.718,31.282]}},{"type":"Feature","properties":{"n":"Ajdabiya","a":"LBY","p":143833,"r":6,"tr":"Ajdabiya"},"geometry":{"type":"Point","coordinates":[20.22,30.77]}},{"type":"Feature","properties":{"n":"Al Amarah","a":"IRQ","p":345007,"r":7,"tr":"Amara"},"geometry":{"type":"Point","coordinates":[47.151,31.842]}},{"type":"Feature","properties":{"n":"Al Ayn","a":"ARE","p":408733,"r":7},"geometry":{"type":"Point","coordinates":[55.74,24.23]}},{"type":"Feature","properties":{"n":"Al Fallujah","a":"IRQ","p":231819,"r":7,"tr":"Felluce"},"geometry":{"type":"Point","coordinates":[43.777,33.348]}},{"type":"Feature","properties":{"n":"Al Hasakah","a":"SYR","p":128100,"r":8,"tr":"Haseke"},"geometry":{"type":"Point","coordinates":[40.75,36.483]}},{"type":"Feature","properties":{"n":"Al Hillah","a":"IRQ","p":594605,"r":7,"tr":"Hille"},"geometry":{"type":"Point","coordinates":[44.422,32.472]}},{"type":"Feature","properties":{"n":"Al Hillah","a":"SAU","p":594605,"r":8},"geometry":{"type":"Point","coordinates":[46.756,23.489]}},{"type":"Feature","properties":{"n":"Al Jahra","a":"KWT","p":194193,"r":8},"geometry":{"type":"Point","coordinates":[47.658,29.337]}},{"type":"Feature","properties":{"n":"Al Jawf","a":"LBY","p":24132,"r":4},"geometry":{"type":"Point","coordinates":[23.29,24.2]}},{"type":"Feature","properties":{"n":"Al Jubayl","a":"SAU","p":237274,"r":7},"geometry":{"type":"Point","coordinates":[49.646,27.005]}},{"type":"Feature","properties":{"n":"Al Khalil","a":"PSX","p":280321,"r":8,"tr":"El Halil"},"geometry":{"type":"Point","coordinates":[35.096,31.541]}},{"type":"Feature","properties":{"n":"Al Kharj","a":"SAU","p":298428,"r":7},"geometry":{"type":"Point","coordinates":[47.312,24.156]}},{"type":"Feature","properties":{"n":"Al Khums","a":"LBY","p":201943,"r":7},"geometry":{"type":"Point","coordinates":[14.26,32.66]}},{"type":"Feature","properties":{"n":"Al Kut","a":"IRQ","p":321521,"r":7,"tr":"Kut"},"geometry":{"type":"Point","coordinates":[45.83,32.491]}},{"type":"Feature","properties":{"n":"Al Marj","a":"LBY","p":169540,"r":7},"geometry":{"type":"Point","coordinates":[20.83,32.5]}},{"type":"Feature","properties":{"n":"Al Mubarraz","a":"SAU","p":298562,"r":8},"geometry":{"type":"Point","coordinates":[49.566,25.429]}},{"type":"Feature","properties":{"n":"Al Musayyib","a":"IRQ","p":76454,"r":8},"geometry":{"type":"Point","coordinates":[44.29,32.779]}},{"type":"Feature","properties":{"n":"Al Qamishli","a":"SYR","p":104107,"r":8,"tr":"Kamışlı"},"geometry":{"type":"Point","coordinates":[41.23,37.03]}},{"type":"Feature","properties":{"n":"Al Qunaytirah","a":"SYR","p":4318,"r":7},"geometry":{"type":"Point","coordinates":[35.824,33.126]}},{"type":"Feature","properties":{"n":"Al Wajh","a":"SAU","p":43237,"r":6},"geometry":{"type":"Point","coordinates":[36.464,26.232]}},{"type":"Feature","properties":{"n":"Al-Qatif","a":"SAU","p":368892,"r":8},"geometry":{"type":"Point","coordinates":[50.012,26.52]}},{"type":"Feature","properties":{"n":"Aleppo","a":"SYR","p":2738000,"r":2,"tr":"Halep"},"geometry":{"type":"Point","coordinates":[37.168,36.232]}},{"type":"Feature","properties":{"n":"Alexandria","a":"EGY","p":4165000,"r":2,"tr":"İskenderiye"},"geometry":{"type":"Point","coordinates":[29.948,31.202]}},{"type":"Feature","properties":{"n":"Alexandroupoli","a":"GRC","p":52979,"r":8,"tr":"Dedeağaç"},"geometry":{"type":"Point","coordinates":[25.874,40.849]}},{"type":"Feature","properties":{"n":"Amasya","a":"TUR","p":82896,"r":7},"geometry":{"type":"Point","coordinates":[35.833,40.654]}},{"type":"Feature","properties":{"n":"Amman","a":"JOR","p":1060000,"r":3,"cap":1,"tr":"Amman"},"geometry":{"type":"Point","coordinates":[35.931,31.952]}},{"type":"Feature","properties":{"n":"Amol","a":"IRN","p":221650,"r":7},"geometry":{"type":"Point","coordinates":[52.363,36.471]}},{"type":"Feature","properties":{"n":"An Nasiriyah","a":"IRQ","p":451547,"r":7,"tr":"Nasıriye"},"geometry":{"type":"Point","coordinates":[46.268,31.043]}},{"type":"Feature","properties":{"n":"Andijan","a":"UZB","p":650000,"r":4,"tr":"Andican"},"geometry":{"type":"Point","coordinates":[72.34,40.79]}},{"type":"Feature","properties":{"n":"Angren","a":"UZB","p":202070,"r":7},"geometry":{"type":"Point","coordinates":[70.155,41.03]}},{"type":"Feature","properties":{"n":"Ankara","a":"TUR","p":3716000,"r":2,"cap":1},"geometry":{"type":"Point","coordinates":[32.862,39.929]}},{"type":"Feature","properties":{"n":"Antakya","a":"TUR","p":154803,"r":10},"geometry":{"type":"Point","coordinates":[36.117,36.233]}},{"type":"Feature","properties":{"n":"Antalya","a":"TUR","p":783000,"r":6},"geometry":{"type":"Point","coordinates":[30.698,36.892]}},{"type":"Feature","properties":{"n":"Aqtau","a":"KAZ","p":4479,"r":6},"geometry":{"type":"Point","coordinates":[51.236,43.623]}},{"type":"Feature","properties":{"n":"Ar Ramadi","a":"IRQ","p":295121,"r":8,"tr":"Ramadi"},"geometry":{"type":"Point","coordinates":[43.3,33.42]}},{"type":"Feature","properties":{"n":"Ar Raqqah","a":"SYR","p":177636,"r":7,"tr":"Rakka"},"geometry":{"type":"Point","coordinates":[39.02,35.93]}},{"type":"Feature","properties":{"n":"Ar Rutbah","a":"IRQ","p":22370,"r":7},"geometry":{"type":"Point","coordinates":[40.284,33.038]}},{"type":"Feature","properties":{"n":"Arad","a":"ROU","p":169065,"r":8},"geometry":{"type":"Point","coordinates":[21.32,46.17]}},{"type":"Feature","properties":{"n":"Arak","a":"IRN","p":503647,"r":7,"tr":"Erak"},"geometry":{"type":"Point","coordinates":[49.7,34.08]}},{"type":"Feature","properties":{"n":"Aral","a":"KAZ","p":33017,"r":6},"geometry":{"type":"Point","coordinates":[61.667,46.8]}},{"type":"Feature","properties":{"n":"Arar","a":"SAU","p":222016,"r":7},"geometry":{"type":"Point","coordinates":[41.021,30.99]}},{"type":"Feature","properties":{"n":"Ardabil","a":"IRN","p":414603,"r":6,"tr":"Erdebil"},"geometry":{"type":"Point","coordinates":[48.3,38.25]}},{"type":"Feature","properties":{"n":"Armavir","a":"RUS","p":199548,"r":7},"geometry":{"type":"Point","coordinates":[41.13,45.0]}},{"type":"Feature","properties":{"n":"As Samawah","a":"IRQ","p":174978,"r":7,"tr":"Semave"},"geometry":{"type":"Point","coordinates":[45.28,31.31]}},{"type":"Feature","properties":{"n":"As Sulaymaniyah","a":"IRQ","p":723170,"r":7,"tr":"Süleymaniye"},"geometry":{"type":"Point","coordinates":[45.431,35.561]}},{"type":"Feature","properties":{"n":"As Suwayda","a":"SYR","p":72248,"r":7,"tr":"Süveyda"},"geometry":{"type":"Point","coordinates":[36.567,32.7]}},{"type":"Feature","properties":{"n":"Ash Shatrah","a":"IRQ","p":161949,"r":8},"geometry":{"type":"Point","coordinates":[46.177,31.418]}},{"type":"Feature","properties":{"n":"Ashgabat","a":"TKM","p":727700,"r":3,"cap":1,"tr":"Aşkabat"},"geometry":{"type":"Point","coordinates":[58.383,37.95]}},{"type":"Feature","properties":{"n":"Astrakhan","a":"RUS","p":502533,"r":4},"geometry":{"type":"Point","coordinates":[48.055,46.349]}},{"type":"Feature","properties":{"n":"Aswan","a":"EGY","p":313442,"r":4,"tr":"Asvan"},"geometry":{"type":"Point","coordinates":[32.899,24.088]}},{"type":"Feature","properties":{"n":"Asyut","a":"EGY","p":420585,"r":4},"geometry":{"type":"Point","coordinates":[31.18,27.19]}},{"type":"Feature","properties":{"n":"Athens","a":"GRC","p":3242000,"r":1,"cap":1,"tr":"Atina"},"geometry":{"type":"Point","coordinates":[23.731,37.985]}},{"type":"Feature","properties":{"n":"Atyrau","a":"KAZ","p":182753,"r":4,"tr":"Atırau"},"geometry":{"type":"Point","coordinates":[51.92,47.113]}},{"type":"Feature","properties":{"n":"Awjilah","a":"LBY","p":6610,"r":6},"geometry":{"type":"Point","coordinates":[21.287,29.108]}},{"type":"Feature","properties":{"n":"Aydın","a":"TUR","p":198857,"r":8},"geometry":{"type":"Point","coordinates":[27.85,37.85]}},{"type":"Feature","properties":{"n":"Az Aubayr","a":"IRQ","p":262219,"r":8},"geometry":{"type":"Point","coordinates":[47.708,30.389]}},{"type":"Feature","properties":{"n":"Az Zarqa","a":"JOR","p":894691,"r":8,"tr":"Zerka"},"geometry":{"type":"Point","coordinates":[36.1,32.07]}},{"type":"Feature","properties":{"n":"Ağrı","a":"TUR","p":87854,"r":7},"geometry":{"type":"Point","coordinates":[43.051,39.72]}},{"type":"Feature","properties":{"n":"Bacău","a":"ROU","p":199668,"r":7},"geometry":{"type":"Point","coordinates":[26.92,46.578]}},{"type":"Feature","properties":{"n":"Bafra","a":"TUR","p":97452,"r":7},"geometry":{"type":"Point","coordinates":[35.907,41.568]}},{"type":"Feature","properties":{"n":"Baghdad","a":"IRQ","p":5054000,"r":1,"cap":1,"tr":"Bağdat"},"geometry":{"type":"Point","coordinates":[44.392,33.341]}},{"type":"Feature","properties":{"n":"Baghlan","a":"AFG","p":218748,"r":6},"geometry":{"type":"Point","coordinates":[68.699,36.139]}},{"type":"Feature","properties":{"n":"Baku","a":"AZE","p":2122300,"r":3,"cap":1,"tr":"Bakü"},"geometry":{"type":"Point","coordinates":[49.86,40.397]}},{"type":"Feature","properties":{"n":"Balkh","a":"AFG","p":179969,"r":7},"geometry":{"type":"Point","coordinates":[66.9,36.75]}},{"type":"Feature","properties":{"n":"Balyqshy","a":"KAZ","p":31624,"r":6},"geometry":{"type":"Point","coordinates":[51.867,47.067]}},{"type":"Feature","properties":{"n":"Balıkesir","a":"TUR","p":261516,"r":7},"geometry":{"type":"Point","coordinates":[27.89,39.65]}},{"type":"Feature","properties":{"n":"Bam","a":"IRN","p":99268,"r":6},"geometry":{"type":"Point","coordinates":[58.362,29.108]}},{"type":"Feature","properties":{"n":"Bamian","a":"AFG","p":61863,"r":6},"geometry":{"type":"Point","coordinates":[67.823,34.813]}},{"type":"Feature","properties":{"n":"Bandar-e Bushehr","a":"IRN","p":169060,"r":6,"tr":"Buşehr"},"geometry":{"type":"Point","coordinates":[50.83,28.92]}},{"type":"Feature","properties":{"n":"Bandar-e-Abbas","a":"IRN","p":461499,"r":4,"tr":"Bender Abbas"},"geometry":{"type":"Point","coordinates":[56.272,27.204]}},{"type":"Feature","properties":{"n":"Banghazi","a":"LBY","p":1180000,"r":3,"tr":"Bingazi"},"geometry":{"type":"Point","coordinates":[20.065,32.119]}},{"type":"Feature","properties":{"n":"Banja Luka","a":"BIH","p":221738,"r":7,"tr":"Banya Luka"},"geometry":{"type":"Point","coordinates":[17.18,44.78]}},{"type":"Feature","properties":{"n":"Baqubah","a":"IRQ","p":299479,"r":7,"tr":"Bakuba"},"geometry":{"type":"Point","coordinates":[44.657,33.748]}},{"type":"Feature","properties":{"n":"Basra","a":"IRQ","p":870000,"r":4,"tr":"Basra"},"geometry":{"type":"Point","coordinates":[47.812,30.515]}},{"type":"Feature","properties":{"n":"Batman","a":"TUR","p":302074,"r":7},"geometry":{"type":"Point","coordinates":[41.14,37.89]}},{"type":"Feature","properties":{"n":"Batumi","a":"GEO","p":155542,"r":6,"tr":"Batum"},"geometry":{"type":"Point","coordinates":[41.63,41.6]}},{"type":"Feature","properties":{"n":"Baykonur","a":"KAZ","p":36175,"r":6},"geometry":{"type":"Point","coordinates":[63.241,45.691]}},{"type":"Feature","properties":{"n":"Beer Sheva","a":"ISR","p":206408,"r":8,"tr":"Birüssebi"},"geometry":{"type":"Point","coordinates":[34.83,31.25]}},{"type":"Feature","properties":{"n":"Beirut","a":"LBN","p":1846000,"r":3,"cap":1,"tr":"Beyrut"},"geometry":{"type":"Point","coordinates":[35.508,33.874]}},{"type":"Feature","properties":{"n":"Belgrade","a":"SRB","p":1099000,"r":3,"cap":1,"tr":"Belgrad"},"geometry":{"type":"Point","coordinates":[20.466,44.821]}},{"type":"Feature","properties":{"n":"Benha","a":"EGY","p":167029,"r":10},"geometry":{"type":"Point","coordinates":[31.183,30.467]}},{"type":"Feature","properties":{"n":"Beni Suef","a":"EGY","p":489450,"r":7},"geometry":{"type":"Point","coordinates":[31.09,29.08]}},{"type":"Feature","properties":{"n":"Beyneu","a":"KAZ","p":32452,"r":6},"geometry":{"type":"Point","coordinates":[55.1,45.183]}},{"type":"Feature","properties":{"n":"Bingöl","a":"TUR","p":80568,"r":10},"geometry":{"type":"Point","coordinates":[40.498,38.885]}},{"type":"Feature","properties":{"n":"Birak","a":"LBY","p":45421,"r":6},"geometry":{"type":"Point","coordinates":[14.283,27.533]}},{"type":"Feature","properties":{"n":"Birjand","a":"IRN","p":324703,"r":6},"geometry":{"type":"Point","coordinates":[59.22,32.88]}},{"type":"Feature","properties":{"n":"Bitlis","a":"TUR","p":62811,"r":10},"geometry":{"type":"Point","coordinates":[42.123,38.394]}},{"type":"Feature","properties":{"n":"Bojnurd","a":"IRN","p":208582,"r":8},"geometry":{"type":"Point","coordinates":[57.32,37.47]}},{"type":"Feature","properties":{"n":"Bolu","a":"TUR","p":96629,"r":7},"geometry":{"type":"Point","coordinates":[31.606,40.736]}},{"type":"Feature","properties":{"n":"Borujerd","a":"IRN","p":251958,"r":8},"geometry":{"type":"Point","coordinates":[48.8,33.92]}},{"type":"Feature","properties":{"n":"Brașov","a":"ROU","p":311044,"r":7},"geometry":{"type":"Point","coordinates":[25.607,45.648]}},{"type":"Feature","properties":{"n":"Brăila","a":"ROU","p":213569,"r":10},"geometry":{"type":"Point","coordinates":[27.969,45.292]}},{"type":"Feature","properties":{"n":"Bucharest","a":"ROU","p":1942000,"r":2,"cap":1,"tr":"Bükreş"},"geometry":{"type":"Point","coordinates":[26.098,44.435]}},{"type":"Feature","properties":{"n":"Budapest","a":"HUN","p":1679000,"r":2,"cap":1},"geometry":{"type":"Point","coordinates":[19.081,47.502]}},{"type":"Feature","properties":{"n":"Bukhara","a":"UZB","p":319476,"r":4,"tr":"Buhara"},"geometry":{"type":"Point","coordinates":[64.43,39.78]}},{"type":"Feature","properties":{"n":"Bur Said","a":"EGY","p":623864,"r":4,"tr":"Port Said"},"geometry":{"type":"Point","coordinates":[32.29,31.26]}},{"type":"Feature","properties":{"n":"Buraydah","a":"SAU","p":398581,"r":7,"tr":"Büreyde"},"geometry":{"type":"Point","coordinates":[43.963,26.366]}},{"type":"Feature","properties":{"n":"Burdur","a":"TUR","p":66158,"r":10},"geometry":{"type":"Point","coordinates":[30.283,37.717]}},{"type":"Feature","properties":{"n":"Burgas","a":"BGR","p":195966,"r":6,"tr":"Burgaz"},"geometry":{"type":"Point","coordinates":[27.475,42.515]}},{"type":"Feature","properties":{"n":"Bursa","a":"TUR","p":1492000,"r":4},"geometry":{"type":"Point","coordinates":[29.068,40.202]}},{"type":"Feature","properties":{"n":"Bălți","a":"MDA","p":151355,"r":7},"geometry":{"type":"Point","coordinates":[27.905,47.759]}},{"type":"Feature","properties":{"n":"Cairo","a":"EGY","p":11893000,"r":0,"cap":1,"tr":"Kahire"},"geometry":{"type":"Point","coordinates":[31.248,30.052]}},{"type":"Feature","properties":{"n":"Chalkida","a":"GRC","p":71842,"r":7,"tr":"Halkida"},"geometry":{"type":"Point","coordinates":[23.612,38.464]}},{"type":"Feature","properties":{"n":"Chirchiq","a":"UZB","p":167842,"r":8},"geometry":{"type":"Point","coordinates":[69.56,41.455]}},{"type":"Feature","properties":{"n":"Chișinău","a":"MDA","p":688134,"r":3,"cap":1,"tr":"Kişinev"},"geometry":{"type":"Point","coordinates":[28.858,47.005]}},{"type":"Feature","properties":{"n":"Cluj-Napoca","a":"ROU","p":316748,"r":6},"geometry":{"type":"Point","coordinates":[23.598,46.788]}},{"type":"Feature","properties":{"n":"Constanța","a":"ROU","p":303399,"r":4,"tr":"Köstence"},"geometry":{"type":"Point","coordinates":[28.61,44.203]}},{"type":"Feature","properties":{"n":"Corum","a":"TUR","p":183418,"r":8,"tr":"Çorum"},"geometry":{"type":"Point","coordinates":[34.95,40.52]}},{"type":"Feature","properties":{"n":"Craiova","a":"ROU","p":304142,"r":7},"geometry":{"type":"Point","coordinates":[23.826,44.326]}},{"type":"Feature","properties":{"n":"Damanhûr","a":"EGY","p":500000,"r":7},"geometry":{"type":"Point","coordinates":[30.47,31.05]}},{"type":"Feature","properties":{"n":"Damascus","a":"SYR","p":2466000,"r":2,"cap":1,"tr":"Şam"},"geometry":{"type":"Point","coordinates":[36.298,33.502]}},{"type":"Feature","properties":{"n":"Dammam","a":"SAU","p":2054710,"r":7,"tr":"Dammam"},"geometry":{"type":"Point","coordinates":[50.098,26.43]}},{"type":"Feature","properties":{"n":"Dar'a","a":"SYR","p":146481,"r":10,"tr":"Dera"},"geometry":{"type":"Point","coordinates":[36.105,32.625]}},{"type":"Feature","properties":{"n":"Darnah","a":"LBY","p":127974,"r":6,"tr":"Derne"},"geometry":{"type":"Point","coordinates":[22.639,32.765]}},{"type":"Feature","properties":{"n":"Dayr az Zawr","a":"SYR","p":309141,"r":7,"tr":"Deyrizor"},"geometry":{"type":"Point","coordinates":[40.13,35.33]}},{"type":"Feature","properties":{"n":"Daşoguz","a":"TKM","p":201424,"r":6,"tr":"Taşavuz"},"geometry":{"type":"Point","coordinates":[59.965,41.84]}},{"type":"Feature","properties":{"n":"Denizli","a":"TUR","p":372344,"r":7},"geometry":{"type":"Point","coordinates":[29.08,37.77]}},{"type":"Feature","properties":{"n":"Denow","a":"UZB","p":217274,"r":8},"geometry":{"type":"Point","coordinates":[67.887,38.277]}},{"type":"Feature","properties":{"n":"Dezful","a":"IRN","p":315482,"r":7},"geometry":{"type":"Point","coordinates":[48.47,32.38]}},{"type":"Feature","properties":{"n":"Diyarbakır","a":"TUR","p":644763,"r":7},"geometry":{"type":"Point","coordinates":[40.23,37.92]}},{"type":"Feature","properties":{"n":"Doha","a":"QAT","p":1450000,"r":4,"cap":1,"tr":"Doha"},"geometry":{"type":"Point","coordinates":[51.533,25.287]}},{"type":"Feature","properties":{"n":"Douma","a":"SYR","p":496145,"r":8,"tr":"Duma"},"geometry":{"type":"Point","coordinates":[36.4,33.583]}},{"type":"Feature","properties":{"n":"Dubai","a":"ARE","p":1379000,"r":1,"tr":"Dubai"},"geometry":{"type":"Point","coordinates":[55.287,25.215]}},{"type":"Feature","properties":{"n":"Duhok","a":"IRQ","p":986000,"r":9,"tr":"Dohuk"},"geometry":{"type":"Point","coordinates":[43.0,36.867]}},{"type":"Feature","properties":{"n":"Dumyat","a":"EGY","p":299459,"r":7},"geometry":{"type":"Point","coordinates":[31.82,31.42]}},{"type":"Feature","properties":{"n":"Dushanbe","a":"TJK","p":1086244,"r":3,"cap":1,"tr":"Duşanbe"},"geometry":{"type":"Point","coordinates":[68.774,38.56]}},{"type":"Feature","properties":{"n":"Edirne","a":"TUR","p":126470,"r":7},"geometry":{"type":"Point","coordinates":[26.57,41.67]}},{"type":"Feature","properties":{"n":"El Arish","a":"EGY","p":178651,"r":7,"tr":"Ariş"},"geometry":{"type":"Point","coordinates":[33.801,31.125]}},{"type":"Feature","properties":{"n":"El Faiyum","a":"EGY","p":316772,"r":4},"geometry":{"type":"Point","coordinates":[30.84,29.31]}},{"type":"Feature","properties":{"n":"El Kharga","a":"EGY","p":49991,"r":6},"geometry":{"type":"Point","coordinates":[30.55,25.44]}},{"type":"Feature","properties":{"n":"El Mansura","a":"EGY","p":600000,"r":7},"geometry":{"type":"Point","coordinates":[31.38,31.05]}},{"type":"Feature","properties":{"n":"El Minya","a":"EGY","p":500000,"r":6},"geometry":{"type":"Point","coordinates":[30.75,28.09]}},{"type":"Feature","properties":{"n":"Elbasan","a":"ALB","p":165010,"r":8,"tr":"Elbasan"},"geometry":{"type":"Point","coordinates":[20.084,41.122]}},{"type":"Feature","properties":{"n":"Elista","a":"RUS","p":106971,"r":6},"geometry":{"type":"Point","coordinates":[44.209,46.329]}},{"type":"Feature","properties":{"n":"Elâzığ","a":"TUR","p":271492,"r":8,"tr":"Elazığ"},"geometry":{"type":"Point","coordinates":[39.23,38.68]}},{"type":"Feature","properties":{"n":"Ereğli","a":"TUR","p":92117,"r":7},"geometry":{"type":"Point","coordinates":[34.052,37.506]}},{"type":"Feature","properties":{"n":"Ermoupoli","a":"GRC","p":12260,"r":7},"geometry":{"type":"Point","coordinates":[24.933,37.45]}},{"type":"Feature","properties":{"n":"Erzincan","a":"TUR","p":129407,"r":7},"geometry":{"type":"Point","coordinates":[39.493,39.753]}},{"type":"Feature","properties":{"n":"Erzurum","a":"TUR","p":420691,"r":7},"geometry":{"type":"Point","coordinates":[41.29,39.92]}},{"type":"Feature","properties":{"n":"Eskişehir","a":"TUR","p":514869,"r":6},"geometry":{"type":"Point","coordinates":[30.53,39.795]}},{"type":"Feature","properties":{"n":"Faisalabad","a":"PAK","p":2617000,"r":6},"geometry":{"type":"Point","coordinates":[73.108,31.412]}},{"type":"Feature","properties":{"n":"Famagusta","a":"CYN","p":42526,"r":8,"tr":"Gazimağusa"},"geometry":{"type":"Point","coordinates":[33.95,35.125]}},{"type":"Feature","properties":{"n":"Farah","a":"AFG","p":73647,"r":6},"geometry":{"type":"Point","coordinates":[62.097,32.392]}},{"type":"Feature","properties":{"n":"Fargona","a":"UZB","p":750000,"r":6,"tr":"Fergana"},"geometry":{"type":"Point","coordinates":[71.78,40.39]}},{"type":"Feature","properties":{"n":"Galați","a":"ROU","p":311156,"r":8},"geometry":{"type":"Point","coordinates":[28.046,45.456]}},{"type":"Feature","properties":{"n":"Ganca","a":"AZE","p":303268,"r":8,"tr":"Gence"},"geometry":{"type":"Point","coordinates":[46.35,40.685]}},{"type":"Feature","properties":{"n":"Gaza City","a":"PSX","p":505700,"r":4,"tr":"Gazze"},"geometry":{"type":"Point","coordinates":[34.445,31.53]}},{"type":"Feature","properties":{"n":"Gaziantep","a":"TUR","p":1044000,"r":6},"geometry":{"type":"Point","coordinates":[37.383,37.077]}},{"type":"Feature","properties":{"n":"Giresun","a":"TUR","p":98864,"r":10},"geometry":{"type":"Point","coordinates":[38.39,40.913]}},{"type":"Feature","properties":{"n":"Giza","a":"EGY","p":2681863,"r":6,"tr":"Giza"},"geometry":{"type":"Point","coordinates":[31.19,30.01]}},{"type":"Feature","properties":{"n":"Gonbad-e Kavus","a":"IRN","p":159982,"r":7},"geometry":{"type":"Point","coordinates":[55.171,37.252]}},{"type":"Feature","properties":{"n":"Gorgan","a":"IRN","p":281023,"r":7,"tr":"Gürgan"},"geometry":{"type":"Point","coordinates":[54.48,36.83]}},{"type":"Feature","properties":{"n":"Grozny","a":"RUS","p":226100,"r":4,"tr":"Grozni"},"geometry":{"type":"Point","coordinates":[45.699,43.319]}},{"type":"Feature","properties":{"n":"Gyumri","a":"ARM","p":148381,"r":8,"tr":"Gümrü"},"geometry":{"type":"Point","coordinates":[43.847,40.789]}},{"type":"Feature","properties":{"n":"Hafar al Batin","a":"SAU","p":249194,"r":7},"geometry":{"type":"Point","coordinates":[45.96,28.434]}},{"type":"Feature","properties":{"n":"Haifa","a":"ISR","p":1011000,"r":7,"tr":"Hayfa"},"geometry":{"type":"Point","coordinates":[34.978,32.822]}},{"type":"Feature","properties":{"n":"Hail","a":"SAU","p":385257,"r":7},"geometry":{"type":"Point","coordinates":[41.7,27.524]}},{"type":"Feature","properties":{"n":"Hakkâri","a":"TUR","p":77699,"r":8},"geometry":{"type":"Point","coordinates":[43.741,37.574]}},{"type":"Feature","properties":{"n":"Hamadan","a":"IRN","p":528256,"r":4,"tr":"Hemedan"},"geometry":{"type":"Point","coordinates":[48.515,34.796]}},{"type":"Feature","properties":{"n":"Hamah","a":"SYR","p":460602,"r":7,"tr":"Hama"},"geometry":{"type":"Point","coordinates":[36.73,35.15]}},{"type":"Feature","properties":{"n":"Hania","a":"GRC","p":78728,"r":8,"tr":"Hanya"},"geometry":{"type":"Point","coordinates":[24.016,35.512]}},{"type":"Feature","properties":{"n":"Hawalli","a":"KWT","p":164212,"r":10},"geometry":{"type":"Point","coordinates":[48.0,29.333]}},{"type":"Feature","properties":{"n":"Herat","a":"AFG","p":481009,"r":4,"tr":"Herat"},"geometry":{"type":"Point","coordinates":[62.17,34.33]}},{"type":"Feature","properties":{"n":"Hios","a":"GRC","p":26891,"r":7},"geometry":{"type":"Point","coordinates":[26.136,38.368]}},{"type":"Feature","properties":{"n":"Hofuf","a":"SAU","p":637389,"r":6,"tr":"Hüfuf"},"geometry":{"type":"Point","coordinates":[49.586,25.349]}},{"type":"Feature","properties":{"n":"Homs","a":"SYR","p":1005000,"r":6,"tr":"Humus"},"geometry":{"type":"Point","coordinates":[36.718,34.732]}},{"type":"Feature","properties":{"n":"Hun","a":"LBY","p":18878,"r":6},"geometry":{"type":"Point","coordinates":[15.933,29.117]}},{"type":"Feature","properties":{"n":"Hurghada","a":"EGY","p":157204,"r":6},"geometry":{"type":"Point","coordinates":[33.83,27.23]}},{"type":"Feature","properties":{"n":"Hyderabad","a":"PAK","p":1459000,"r":3},"geometry":{"type":"Point","coordinates":[68.373,25.382]}},{"type":"Feature","properties":{"n":"Iași","a":"ROU","p":325914,"r":4,"tr":"Yaş"},"geometry":{"type":"Point","coordinates":[27.575,47.168]}},{"type":"Feature","properties":{"n":"Icel","a":"TUR","p":616990,"r":8,"tr":"Mersin"},"geometry":{"type":"Point","coordinates":[34.62,36.8]}},{"type":"Feature","properties":{"n":"Idlib","a":"SYR","p":128840,"r":8,"tr":"İdlib"},"geometry":{"type":"Point","coordinates":[36.632,35.93]}},{"type":"Feature","properties":{"n":"Ilam","a":"IRN","p":152894,"r":7},"geometry":{"type":"Point","coordinates":[46.43,33.63]}},{"type":"Feature","properties":{"n":"Ioanina","a":"GRC","p":86304,"r":7,"tr":"Yanya"},"geometry":{"type":"Point","coordinates":[20.851,39.668]}},{"type":"Feature","properties":{"n":"Iraklio","a":"GRC","p":137154,"r":6,"tr":"Kandiye"},"geometry":{"type":"Point","coordinates":[25.13,35.325]}},{"type":"Feature","properties":{"n":"Irbid","a":"JOR","p":650000,"r":8,"tr":"İrbid"},"geometry":{"type":"Point","coordinates":[35.85,32.55]}},{"type":"Feature","properties":{"n":"Irbil","a":"IRQ","p":926000,"r":6,"tr":"Erbil"},"geometry":{"type":"Point","coordinates":[44.007,36.181]}},{"type":"Feature","properties":{"n":"Isfahan","a":"IRN","p":1628000,"r":3,"tr":"İsfahan"},"geometry":{"type":"Point","coordinates":[51.698,32.702]}},{"type":"Feature","properties":{"n":"Iskandar","a":"UZB","p":195633,"r":8},"geometry":{"type":"Point","coordinates":[69.681,41.551]}},{"type":"Feature","properties":{"n":"Islamabad","a":"PAK","p":780000,"r":3,"cap":1,"tr":"İslamabad"},"geometry":{"type":"Point","coordinates":[73.081,33.689]}},{"type":"Feature","properties":{"n":"Ismaïlia","a":"EGY","p":656135,"r":7},"geometry":{"type":"Point","coordinates":[32.26,30.59]}},{"type":"Feature","properties":{"n":"Isparta","a":"TUR","p":172334,"r":8},"geometry":{"type":"Point","coordinates":[30.53,37.77]}},{"type":"Feature","properties":{"n":"Istanbul","a":"TUR","p":10061000,"r":0,"tr":"İstanbul"},"geometry":{"type":"Point","coordinates":[28.974,41.018]}},{"type":"Feature","properties":{"n":"Izaz","a":"SYR","p":31534,"r":8},"geometry":{"type":"Point","coordinates":[37.044,36.589]}},{"type":"Feature","properties":{"n":"Jalal Abad","a":"KGZ","p":248899,"r":7,"tr":"Celalabad"},"geometry":{"type":"Point","coordinates":[73.003,40.943]}},{"type":"Feature","properties":{"n":"Jalalabad","a":"AFG","p":597971,"r":7},"geometry":{"type":"Point","coordinates":[70.436,34.442]}},{"type":"Feature","properties":{"n":"Jerusalem","a":"ISR","p":1029300,"r":3,"cap":1,"tr":"Kudüs"},"geometry":{"type":"Point","coordinates":[35.207,31.778]}},{"type":"Feature","properties":{"n":"Jizzax","a":"UZB","p":235352,"r":7},"geometry":{"type":"Point","coordinates":[67.83,40.1]}},{"type":"Feature","properties":{"n":"Kabul","a":"AFG","p":3277000,"r":1,"cap":1,"tr":"Kâbil"},"geometry":{"type":"Point","coordinates":[69.181,34.519]}},{"type":"Feature","properties":{"n":"Kahramanmaraş","a":"TUR","p":376045,"r":8},"geometry":{"type":"Point","coordinates":[36.945,37.61]}},{"type":"Feature","properties":{"n":"Kalamata","a":"GRC","p":71823,"r":6},"geometry":{"type":"Point","coordinates":[22.114,37.039]}},{"type":"Feature","properties":{"n":"Kandahar","a":"AFG","p":715542,"r":3,"tr":"Kandahar"},"geometry":{"type":"Point","coordinates":[65.695,31.61]}},{"type":"Feature","properties":{"n":"Karabük","a":"TUR","p":128564,"r":8},"geometry":{"type":"Point","coordinates":[32.6,41.2]}},{"type":"Feature","properties":{"n":"Karachi","a":"PAK","p":12130000,"r":2,"tr":"Karaçi"},"geometry":{"type":"Point","coordinates":[66.988,24.872]}},{"type":"Feature","properties":{"n":"Karaj","a":"IRN","p":1423000,"r":7,"tr":"Kerec"},"geometry":{"type":"Point","coordinates":[50.968,35.802]}},{"type":"Feature","properties":{"n":"Karaman","a":"TUR","p":120399,"r":7},"geometry":{"type":"Point","coordinates":[33.215,37.182]}},{"type":"Feature","properties":{"n":"Karbala","a":"IRQ","p":510692,"r":7,"tr":"Kerbela"},"geometry":{"type":"Point","coordinates":[44.024,32.615]}},{"type":"Feature","properties":{"n":"Kars","a":"TUR","p":77486,"r":7},"geometry":{"type":"Point","coordinates":[43.097,40.608]}},{"type":"Feature","properties":{"n":"Kashan","a":"IRN","p":250000,"r":7},"geometry":{"type":"Point","coordinates":[51.58,33.98]}},{"type":"Feature","properties":{"n":"Kashmar","a":"IRN","p":157135,"r":6},"geometry":{"type":"Point","coordinates":[58.451,35.181]}},{"type":"Feature","properties":{"n":"Kastamonu","a":"TUR","p":70402,"r":10},"geometry":{"type":"Point","coordinates":[33.783,41.389]}},{"type":"Feature","properties":{"n":"Katerini","a":"GRC","p":53293,"r":7},"geometry":{"type":"Point","coordinates":[22.502,40.272]}},{"type":"Feature","properties":{"n":"Kattaqorgon","a":"UZB","p":247113,"r":8},"geometry":{"type":"Point","coordinates":[66.261,39.901]}},{"type":"Feature","properties":{"n":"Kavala","a":"GRC","p":59240,"r":8,"tr":"Kavala"},"geometry":{"type":"Point","coordinates":[24.402,40.941]}},{"type":"Feature","properties":{"n":"Kayseri","a":"TUR","p":592840,"r":6},"geometry":{"type":"Point","coordinates":[35.49,38.735]}},{"type":"Feature","properties":{"n":"Kerch","a":"RUS","p":152195,"r":7,"tr":"Kerç"},"geometry":{"type":"Point","coordinates":[36.488,45.369]}},{"type":"Feature","properties":{"n":"Kerkira","a":"GRC","p":38517,"r":7},"geometry":{"type":"Point","coordinates":[19.915,39.615]}},{"type":"Feature","properties":{"n":"Kerman","a":"IRN","p":577514,"r":6,"tr":"Kirman"},"geometry":{"type":"Point","coordinates":[57.08,30.3]}},{"type":"Feature","properties":{"n":"Kermanshah","a":"IRN","p":828313,"r":6,"tr":"Kirmanşah"},"geometry":{"type":"Point","coordinates":[47.058,34.382]}},{"type":"Feature","properties":{"n":"Kherson","a":"UKR","p":320477,"r":7,"tr":"Herson"},"geometry":{"type":"Point","coordinates":[32.601,46.633]}},{"type":"Feature","properties":{"n":"Khomeini Shahr","a":"IRN","p":437138,"r":7},"geometry":{"type":"Point","coordinates":[51.47,32.7]}},{"type":"Feature","properties":{"n":"Khorramabad","a":"IRN","p":375198,"r":7,"tr":"Hürremabad"},"geometry":{"type":"Point","coordinates":[48.35,33.48]}},{"type":"Feature","properties":{"n":"Khorugh","a":"TJK","p":30000,"r":6},"geometry":{"type":"Point","coordinates":[71.548,37.488]}},{"type":"Feature","properties":{"n":"Khujand","a":"TJK","p":437684,"r":6,"tr":"Hocent"},"geometry":{"type":"Point","coordinates":[69.62,40.29]}},{"type":"Feature","properties":{"n":"Khvoy","a":"IRN","p":202728,"r":7,"tr":"Hoy"},"geometry":{"type":"Point","coordinates":[44.97,38.53]}},{"type":"Feature","properties":{"n":"Kilis","a":"TUR","p":82301,"r":7},"geometry":{"type":"Point","coordinates":[37.12,36.72]}},{"type":"Feature","properties":{"n":"Kirkuk","a":"IRQ","p":601433,"r":4,"tr":"Kerkük"},"geometry":{"type":"Point","coordinates":[44.392,35.472]}},{"type":"Feature","properties":{"n":"Kom Ombo","a":"EGY","p":303962,"r":6},"geometry":{"type":"Point","coordinates":[32.95,24.47]}},{"type":"Feature","properties":{"n":"Kondoz","a":"AFG","p":259809,"r":7,"tr":"Kunduz"},"geometry":{"type":"Point","coordinates":[68.873,36.728]}},{"type":"Feature","properties":{"n":"Konibodom","a":"TJK","p":259876,"r":8,"tr":"Kanibadam"},"geometry":{"type":"Point","coordinates":[70.427,40.292]}},{"type":"Feature","properties":{"n":"Konya","a":"TUR","p":919000,"r":4},"geometry":{"type":"Point","coordinates":[32.473,37.877]}},{"type":"Feature","properties":{"n":"Kos","a":"GRC","p":19244,"r":7,"tr":"İstanköy"},"geometry":{"type":"Point","coordinates":[27.289,36.894]}},{"type":"Feature","properties":{"n":"Kragujevac","a":"SRB","p":171197,"r":8},"geometry":{"type":"Point","coordinates":[20.92,44.02]}},{"type":"Feature","properties":{"n":"Krasnodar","a":"RUS","p":649851,"r":4,"tr":"Krasnodar"},"geometry":{"type":"Point","coordinates":[39.0,45.02]}},{"type":"Feature","properties":{"n":"Kryvyy Rih","a":"UKR","p":652380,"r":8,"tr":"Kriviy Rih"},"geometry":{"type":"Point","coordinates":[33.345,47.928]}},{"type":"Feature","properties":{"n":"Kutaisi","a":"GEO","p":183945,"r":8,"tr":"Kutaisi"},"geometry":{"type":"Point","coordinates":[42.73,42.25]}},{"type":"Feature","properties":{"n":"Kuwait City","a":"KWT","p":2063000,"r":2,"cap":1,"tr":"Kuveyt"},"geometry":{"type":"Point","coordinates":[47.976,29.372]}},{"type":"Feature","properties":{"n":"Kyrenia","a":"CYN","p":26701,"r":10,"tr":"Girne"},"geometry":{"type":"Point","coordinates":[33.333,35.326]}},{"type":"Feature","properties":{"n":"Kütahya","a":"TUR","p":185008,"r":8},"geometry":{"type":"Point","coordinates":[29.93,39.42]}},{"type":"Feature","properties":{"n":"Kırklareli","a":"TUR","p":58223,"r":10},"geometry":{"type":"Point","coordinates":[27.226,41.743]}},{"type":"Feature","properties":{"n":"Kırıkkale","a":"TUR","p":211138,"r":7},"geometry":{"type":"Point","coordinates":[33.53,39.85]}},{"type":"Feature","properties":{"n":"Kırşehir","a":"TUR","p":94336,"r":10},"geometry":{"type":"Point","coordinates":[34.171,39.142]}},{"type":"Feature","properties":{"n":"Larissa","a":"GRC","p":128758,"r":7,"tr":"Larisa"},"geometry":{"type":"Point","coordinates":[22.42,39.63]}},{"type":"Feature","properties":{"n":"Larnaka","a":"CYP","p":48947,"r":10,"tr":"Larnaka"},"geometry":{"type":"Point","coordinates":[33.636,34.917]}},{"type":"Feature","properties":{"n":"Lashkar Gah","a":"AFG","p":201546,"r":10},"geometry":{"type":"Point","coordinates":[64.36,31.583]}},{"type":"Feature","properties":{"n":"Latakia","a":"SYR","p":539147,"r":8,"tr":"Lazkiye"},"geometry":{"type":"Point","coordinates":[35.78,35.54]}},{"type":"Feature","properties":{"n":"Lemosos","a":"CYP","p":154000,"r":7,"tr":"Limasol"},"geometry":{"type":"Point","coordinates":[33.033,34.675]}},{"type":"Feature","properties":{"n":"Ljubljana","a":"SVN","p":314807,"r":4,"cap":1},"geometry":{"type":"Point","coordinates":[14.515,46.055]}},{"type":"Feature","properties":{"n":"Luxor","a":"EGY","p":609248,"r":3,"tr":"Luksor"},"geometry":{"type":"Point","coordinates":[32.65,25.7]}},{"type":"Feature","properties":{"n":"Lüleburgaz","a":"TUR","p":90899,"r":8},"geometry":{"type":"Point","coordinates":[27.355,41.407]}},{"type":"Feature","properties":{"n":"Madinat ath Thawrah","a":"SYR","p":87880,"r":8,"tr":"Tabka"},"geometry":{"type":"Point","coordinates":[38.548,35.837]}},{"type":"Feature","properties":{"n":"Mahabad","a":"IRN","p":162434,"r":7,"tr":"Mahabad"},"geometry":{"type":"Point","coordinates":[45.72,36.77]}},{"type":"Feature","properties":{"n":"Makhachkala","a":"RUS","p":554981,"r":6,"tr":"Mahaçkale"},"geometry":{"type":"Point","coordinates":[47.5,42.98]}},{"type":"Feature","properties":{"n":"Malatya","a":"TUR","p":461574,"r":7},"geometry":{"type":"Point","coordinates":[38.3,38.37]}},{"type":"Feature","properties":{"n":"Malayer","a":"IRN","p":176573,"r":8},"geometry":{"type":"Point","coordinates":[48.85,34.32]}},{"type":"Feature","properties":{"n":"Mallawi","a":"EGY","p":217365,"r":7},"geometry":{"type":"Point","coordinates":[30.84,27.73]}},{"type":"Feature","properties":{"n":"Manama","a":"BHR","p":563920,"r":4,"cap":1,"tr":"Manama"},"geometry":{"type":"Point","coordinates":[50.583,26.236]}},{"type":"Feature","properties":{"n":"Manbij","a":"SYR","p":120169,"r":8,"tr":"Münbiç"},"geometry":{"type":"Point","coordinates":[37.956,36.527]}},{"type":"Feature","properties":{"n":"Mandali","a":"IRQ","p":29785,"r":8},"geometry":{"type":"Point","coordinates":[45.546,33.744]}},{"type":"Feature","properties":{"n":"Manisa","a":"TUR","p":243971,"r":7},"geometry":{"type":"Point","coordinates":[27.44,38.63]}},{"type":"Feature","properties":{"n":"Maragheh","a":"IRN","p":151385,"r":7,"tr":"Merağa"},"geometry":{"type":"Point","coordinates":[46.22,37.42]}},{"type":"Feature","properties":{"n":"Mardin","a":"TUR","p":71373,"r":7},"geometry":{"type":"Point","coordinates":[40.743,37.312]}},{"type":"Feature","properties":{"n":"Mariupol","a":"UKR","p":481626,"r":6,"tr":"Mariupol"},"geometry":{"type":"Point","coordinates":[37.556,47.096]}},{"type":"Feature","properties":{"n":"Mary","a":"TKM","p":178708,"r":4,"tr":"Merv"},"geometry":{"type":"Point","coordinates":[61.833,37.6]}},{"type":"Feature","properties":{"n":"Marzuq","a":"LBY","p":55071,"r":6},"geometry":{"type":"Point","coordinates":[13.897,25.904]}},{"type":"Feature","properties":{"n":"Mashhad","a":"IRN","p":2469000,"r":2,"tr":"Meşhed"},"geometry":{"type":"Point","coordinates":[59.568,36.272]}},{"type":"Feature","properties":{"n":"Masjed Soleyman","a":"IRN","p":153663,"r":8},"geometry":{"type":"Point","coordinates":[49.3,31.98]}},{"type":"Feature","properties":{"n":"Maykop","a":"RUS","p":158451,"r":8},"geometry":{"type":"Point","coordinates":[40.12,44.61]}},{"type":"Feature","properties":{"n":"Mazar-i-Sharif","a":"AFG","p":458151,"r":4,"tr":"Mezar-ı Şerif"},"geometry":{"type":"Point","coordinates":[67.1,36.7]}},{"type":"Feature","properties":{"n":"Medina","a":"SAU","p":1010000,"r":4,"tr":"Medine"},"geometry":{"type":"Point","coordinates":[39.578,24.502]}},{"type":"Feature","properties":{"n":"Melitopol","a":"UKR","p":158000,"r":7,"tr":"Melitopol"},"geometry":{"type":"Point","coordinates":[35.377,46.838]}},{"type":"Feature","properties":{"n":"Meymaneh","a":"AFG","p":199795,"r":7},"geometry":{"type":"Point","coordinates":[64.77,35.93]}},{"type":"Feature","properties":{"n":"Misrata","a":"LBY","p":386120,"r":4,"tr":"Misrata"},"geometry":{"type":"Point","coordinates":[15.1,32.38]}},{"type":"Feature","properties":{"n":"Mitilini","a":"GRC","p":29328,"r":7},"geometry":{"type":"Point","coordinates":[26.555,39.11]}},{"type":"Feature","properties":{"n":"Mostar","a":"BIH","p":163067,"r":7,"tr":"Mostar"},"geometry":{"type":"Point","coordinates":[17.82,43.35]}},{"type":"Feature","properties":{"n":"Mosul","a":"IRQ","p":1316000,"r":4,"tr":"Musul"},"geometry":{"type":"Point","coordinates":[43.143,36.347]}},{"type":"Feature","properties":{"n":"Multan","a":"PAK","p":1522000,"r":3,"tr":"Multan"},"geometry":{"type":"Point","coordinates":[71.453,30.202]}},{"type":"Feature","properties":{"n":"Muscat","a":"OMN","p":734697,"r":3,"cap":1,"tr":"Maskat"},"geometry":{"type":"Point","coordinates":[58.378,23.585]}},{"type":"Feature","properties":{"n":"Muynoq","a":"UZB","p":13000,"r":6},"geometry":{"type":"Point","coordinates":[59.021,43.768]}},{"type":"Feature","properties":{"n":"Muğla","a":"TUR","p":48183,"r":8},"geometry":{"type":"Point","coordinates":[28.364,37.216]}},{"type":"Feature","properties":{"n":"Muş","a":"TUR","p":82536,"r":7},"geometry":{"type":"Point","coordinates":[41.497,38.749]}},{"type":"Feature","properties":{"n":"Mykolayiv","a":"UKR","p":510840,"r":8,"tr":"Mikolayiv"},"geometry":{"type":"Point","coordinates":[31.984,46.968]}},{"type":"Feature","properties":{"n":"Nabatiye et Tahta","a":"LBN","p":80000,"r":10},"geometry":{"type":"Point","coordinates":[35.45,33.383]}},{"type":"Feature","properties":{"n":"Nablus","a":"PSX","p":215981,"r":7,"tr":"Nablus"},"geometry":{"type":"Point","coordinates":[35.254,32.221]}},{"type":"Feature","properties":{"n":"Najaf","a":"IRQ","p":665552,"r":4,"tr":"Necef"},"geometry":{"type":"Point","coordinates":[44.335,32.0]}},{"type":"Feature","properties":{"n":"Nalchik","a":"RUS","p":307866,"r":4,"tr":"Nalçik"},"geometry":{"type":"Point","coordinates":[43.618,43.498]}},{"type":"Feature","properties":{"n":"Namangan","a":"UZB","p":750000,"r":6,"tr":"Nemengan"},"geometry":{"type":"Point","coordinates":[71.67,41.0]}},{"type":"Feature","properties":{"n":"Naples","a":"ITA","p":2250000,"r":2},"geometry":{"type":"Point","coordinates":[14.243,40.842]}},{"type":"Feature","properties":{"n":"Navoi","a":"UZB","p":214828,"r":7},"geometry":{"type":"Point","coordinates":[65.355,40.11]}},{"type":"Feature","properties":{"n":"Naxcivan","a":"AZE","p":94788,"r":7,"tr":"Nahçıvan"},"geometry":{"type":"Point","coordinates":[45.412,39.209]}},{"type":"Feature","properties":{"n":"Nazareth","a":"ISR","p":151459,"r":7,"tr":"Nasıra"},"geometry":{"type":"Point","coordinates":[35.296,32.704]}},{"type":"Feature","properties":{"n":"Nevşehir","a":"TUR","p":75527,"r":10},"geometry":{"type":"Point","coordinates":[34.724,38.624]}},{"type":"Feature","properties":{"n":"Neyshabur","a":"IRN","p":221700,"r":8,"tr":"Nişabur"},"geometry":{"type":"Point","coordinates":[58.82,36.22]}},{"type":"Feature","properties":{"n":"Nicosia","a":"CYP","p":224300,"r":3,"cap":1,"tr":"Lefkoşa"},"geometry":{"type":"Point","coordinates":[33.367,35.167]}},{"type":"Feature","properties":{"n":"Nizwa","a":"OMN","p":72076,"r":6},"geometry":{"type":"Point","coordinates":[57.531,22.926]}},{"type":"Feature","properties":{"n":"Niğde","a":"TUR","p":91039,"r":10},"geometry":{"type":"Point","coordinates":[34.694,37.976]}},{"type":"Feature","properties":{"n":"Niš","a":"SRB","p":250000,"r":7,"tr":"Niş"},"geometry":{"type":"Point","coordinates":[21.9,43.33]}},{"type":"Feature","properties":{"n":"Novi Sad","a":"SRB","p":225457,"r":7,"tr":"Novi Sad"},"geometry":{"type":"Point","coordinates":[19.85,45.25]}},{"type":"Feature","properties":{"n":"Novocherkassk","a":"RUS","p":166974,"r":8},"geometry":{"type":"Point","coordinates":[40.08,47.42]}},{"type":"Feature","properties":{"n":"Novorossiysk","a":"RUS","p":241856,"r":6,"tr":"Novorossiysk"},"geometry":{"type":"Point","coordinates":[37.77,44.73]}},{"type":"Feature","properties":{"n":"Nukus","a":"UZB","p":230006,"r":4,"tr":"Nukus"},"geometry":{"type":"Point","coordinates":[59.615,42.47]}},{"type":"Feature","properties":{"n":"Nusaybin","a":"TUR","p":152668,"r":8},"geometry":{"type":"Point","coordinates":[41.218,37.075]}},{"type":"Feature","properties":{"n":"Odessa","a":"UKR","p":991000,"r":4,"tr":"Odesa"},"geometry":{"type":"Point","coordinates":[30.708,46.492]}},{"type":"Feature","properties":{"n":"Oradea","a":"ROU","p":213830,"r":8},"geometry":{"type":"Point","coordinates":[21.92,47.05]}},{"type":"Feature","properties":{"n":"Ordu","a":"TUR","p":155117,"r":7},"geometry":{"type":"Point","coordinates":[37.87,41.0]}},{"type":"Feature","properties":{"n":"Osh","a":"KGZ","p":391277,"r":7,"tr":"Oş"},"geometry":{"type":"Point","coordinates":[72.79,40.54]}},{"type":"Feature","properties":{"n":"Patra","a":"GRC","p":163360,"r":6,"tr":"Patra"},"geometry":{"type":"Point","coordinates":[21.73,38.23]}},{"type":"Feature","properties":{"n":"Peshawar","a":"PAK","p":1303000,"r":3,"tr":"Peşaver"},"geometry":{"type":"Point","coordinates":[71.533,34.007]}},{"type":"Feature","properties":{"n":"Piraeus","a":"GRC","p":466065,"r":8,"tr":"Pire"},"geometry":{"type":"Point","coordinates":[23.7,37.95]}},{"type":"Feature","properties":{"n":"Pirgos","a":"GRC","p":22399,"r":7},"geometry":{"type":"Point","coordinates":[21.45,37.684]}},{"type":"Feature","properties":{"n":"Pitești","a":"ROU","p":171021,"r":7},"geometry":{"type":"Point","coordinates":[24.876,44.856]}},{"type":"Feature","properties":{"n":"Ploiești","a":"ROU","p":232542,"r":7},"geometry":{"type":"Point","coordinates":[26.036,44.947]}},{"type":"Feature","properties":{"n":"Plovdiv","a":"BGR","p":340494,"r":8,"tr":"Filibe"},"geometry":{"type":"Point","coordinates":[24.754,42.154]}},{"type":"Feature","properties":{"n":"Podgorica","a":"MNE","p":145850,"r":4,"cap":1,"tr":"Podgoritsa"},"geometry":{"type":"Point","coordinates":[19.266,42.466]}},{"type":"Feature","properties":{"n":"Polatlı","a":"TUR","p":93262,"r":8},"geometry":{"type":"Point","coordinates":[32.147,39.584]}},{"type":"Feature","properties":{"n":"Poti","a":"GEO","p":47149,"r":7,"tr":"Poti"},"geometry":{"type":"Point","coordinates":[41.672,42.156]}},{"type":"Feature","properties":{"n":"Pristina","a":"KOS","p":465186,"r":4,"cap":1,"tr":"Priştine"},"geometry":{"type":"Point","coordinates":[21.166,42.667]}},{"type":"Feature","properties":{"n":"Prizren","a":"KOS","p":171464,"r":8,"tr":"Prizren"},"geometry":{"type":"Point","coordinates":[20.75,42.229]}},{"type":"Feature","properties":{"n":"Qarshi","a":"UZB","p":386361,"r":7,"tr":"Karşı"},"geometry":{"type":"Point","coordinates":[65.8,38.87]}},{"type":"Feature","properties":{"n":"Qazaly","a":"KAZ","p":6582,"r":6},"geometry":{"type":"Point","coordinates":[62.108,45.763]}},{"type":"Feature","properties":{"n":"Qazvin","a":"IRN","p":464551,"r":6,"tr":"Kazvin"},"geometry":{"type":"Point","coordinates":[50.0,36.27]}},{"type":"Feature","properties":{"n":"Qena","a":"EGY","p":302027,"r":7},"geometry":{"type":"Point","coordinates":[32.72,26.15]}},{"type":"Feature","properties":{"n":"Qom","a":"IRN","p":973000,"r":6,"tr":"Kum"},"geometry":{"type":"Point","coordinates":[50.948,34.652]}},{"type":"Feature","properties":{"n":"Qoqon","a":"UZB","p":350000,"r":7,"tr":"Hokand"},"geometry":{"type":"Point","coordinates":[70.94,40.54]}},{"type":"Feature","properties":{"n":"Qulsary","a":"KAZ","p":37103,"r":6},"geometry":{"type":"Point","coordinates":[54.017,46.983]}},{"type":"Feature","properties":{"n":"Qurghonteppa","a":"TJK","p":311574,"r":8,"tr":"Kurgantepe"},"geometry":{"type":"Point","coordinates":[68.771,37.837]}},{"type":"Feature","properties":{"n":"Qyzylorda","a":"KAZ","p":300000,"r":4,"tr":"Kızılorda"},"geometry":{"type":"Point","coordinates":[65.465,44.8]}},{"type":"Feature","properties":{"n":"Rajkot","a":"IND","p":1260000,"r":4},"geometry":{"type":"Point","coordinates":[70.798,22.312]}},{"type":"Feature","properties":{"n":"Ramla","a":"ISR","p":63860,"r":10},"geometry":{"type":"Point","coordinates":[34.867,31.917]}},{"type":"Feature","properties":{"n":"Ras al Khaymah","a":"ARE","p":160849,"r":7},"geometry":{"type":"Point","coordinates":[55.943,25.792]}},{"type":"Feature","properties":{"n":"Rashid","a":"EGY","p":199509,"r":7},"geometry":{"type":"Point","coordinates":[30.39,31.46]}},{"type":"Feature","properties":{"n":"Rasht","a":"IRN","p":594590,"r":6,"tr":"Reşt"},"geometry":{"type":"Point","coordinates":[49.63,37.3]}},{"type":"Feature","properties":{"n":"Rawalpindi","a":"PAK","p":1858000,"r":6,"tr":"Ravalpindi"},"geometry":{"type":"Point","coordinates":[73.068,33.591]}},{"type":"Feature","properties":{"n":"Riyadh","a":"SAU","p":4465000,"r":0,"cap":1,"tr":"Riyad"},"geometry":{"type":"Point","coordinates":[46.72,24.634]}},{"type":"Feature","properties":{"n":"Rize","a":"TUR","p":279450,"r":8},"geometry":{"type":"Point","coordinates":[40.522,41.021]}},{"type":"Feature","properties":{"n":"Rodos","a":"GRC","p":56969,"r":7,"tr":"Rodos"},"geometry":{"type":"Point","coordinates":[28.223,36.441]}},{"type":"Feature","properties":{"n":"Rostov","a":"RUS","p":1052000,"r":4,"tr":"Rostov"},"geometry":{"type":"Point","coordinates":[39.711,47.237]}},{"type":"Feature","properties":{"n":"Ruse","a":"BGR","p":184270,"r":7,"tr":"Rusçuk"},"geometry":{"type":"Point","coordinates":[25.973,43.854]}},{"type":"Feature","properties":{"n":"Rustavi","a":"GEO","p":157063,"r":7},"geometry":{"type":"Point","coordinates":[45.05,41.57]}},{"type":"Feature","properties":{"n":"Sabha","a":"LBY","p":100249,"r":3,"tr":"Sebha"},"geometry":{"type":"Point","coordinates":[14.433,27.033]}},{"type":"Feature","properties":{"n":"Sabzewar","a":"IRN","p":226183,"r":6,"tr":"Sebzevar"},"geometry":{"type":"Point","coordinates":[57.63,36.22]}},{"type":"Feature","properties":{"n":"Saida","a":"LBN","p":173894,"r":8,"tr":"Sayda"},"geometry":{"type":"Point","coordinates":[35.369,33.563]}},{"type":"Feature","properties":{"n":"Saidu","a":"PAK","p":1860310,"r":6},"geometry":{"type":"Point","coordinates":[72.35,34.75]}},{"type":"Feature","properties":{"n":"Sakarya","a":"TUR","p":286787,"r":10},"geometry":{"type":"Point","coordinates":[30.4,40.767]}},{"type":"Feature","properties":{"n":"Samalut","a":"EGY","p":152097,"r":7},"geometry":{"type":"Point","coordinates":[30.71,28.3]}},{"type":"Feature","properties":{"n":"Samandagi","a":"TUR","p":93638,"r":7,"tr":"Samandağ"},"geometry":{"type":"Point","coordinates":[35.933,36.117]}},{"type":"Feature","properties":{"n":"Samarkand","a":"UZB","p":708000,"r":3,"tr":"Semerkant"},"geometry":{"type":"Point","coordinates":[66.945,39.67]}},{"type":"Feature","properties":{"n":"Samarra","a":"IRQ","p":158508,"r":9,"tr":"Samerra"},"geometry":{"type":"Point","coordinates":[43.875,34.194]}},{"type":"Feature","properties":{"n":"Samsun","a":"TUR","p":609339,"r":4},"geometry":{"type":"Point","coordinates":[36.344,41.28]}},{"type":"Feature","properties":{"n":"Sanandaj","a":"IRN","p":349176,"r":8,"tr":"Senendec"},"geometry":{"type":"Point","coordinates":[47.02,35.3]}},{"type":"Feature","properties":{"n":"Sarajevo","a":"BIH","p":696731,"r":3,"cap":1,"tr":"Saraybosna"},"geometry":{"type":"Point","coordinates":[18.383,43.85]}},{"type":"Feature","properties":{"n":"Sari","a":"IRN","p":271467,"r":7},"geometry":{"type":"Point","coordinates":[53.1,36.55]}},{"type":"Feature","properties":{"n":"Saveh","a":"IRN","p":175533,"r":7},"geometry":{"type":"Point","coordinates":[50.331,35.022]}},{"type":"Feature","properties":{"n":"Seeb","a":"OMN","p":237816,"r":6},"geometry":{"type":"Point","coordinates":[58.183,23.68]}},{"type":"Feature","properties":{"n":"Seres","a":"GRC","p":55886,"r":7},"geometry":{"type":"Point","coordinates":[23.55,41.086]}},{"type":"Feature","properties":{"n":"Sevastopol","a":"RUS","p":379200,"r":3,"tr":"Sivastopol"},"geometry":{"type":"Point","coordinates":[33.524,44.604]}},{"type":"Feature","properties":{"n":"Shahrisabz","a":"UZB","p":498545,"r":7,"tr":"Şehrisebz"},"geometry":{"type":"Point","coordinates":[66.831,39.062]}},{"type":"Feature","properties":{"n":"Shakhty","a":"RUS","p":221312,"r":7},"geometry":{"type":"Point","coordinates":[40.27,47.72]}},{"type":"Feature","properties":{"n":"Shalqar","a":"KAZ","p":27256,"r":6},"geometry":{"type":"Point","coordinates":[59.614,47.836]}},{"type":"Feature","properties":{"n":"Sharjah","a":"ARE","p":1103027,"r":8,"tr":"Şarika"},"geometry":{"type":"Point","coordinates":[55.406,25.371]}},{"type":"Feature","properties":{"n":"Shibin el Kom","a":"EGY","p":182900,"r":10},"geometry":{"type":"Point","coordinates":[31.007,30.554]}},{"type":"Feature","properties":{"n":"Shiraz","a":"IRN","p":1240000,"r":3,"tr":"Şiraz"},"geometry":{"type":"Point","coordinates":[52.568,29.632]}},{"type":"Feature","properties":{"n":"Shkodër","a":"ALB","p":155767,"r":7,"tr":"İşkodra"},"geometry":{"type":"Point","coordinates":[19.519,42.068]}},{"type":"Feature","properties":{"n":"Shymkent","a":"KAZ","p":465392,"r":4,"tr":"Çimkent"},"geometry":{"type":"Point","coordinates":[69.595,42.32]}},{"type":"Feature","properties":{"n":"Sibiu","a":"ROU","p":155565,"r":8},"geometry":{"type":"Point","coordinates":[24.137,45.797]}},{"type":"Feature","properties":{"n":"Siirt","a":"TUR","p":114034,"r":10},"geometry":{"type":"Point","coordinates":[41.933,37.944]}},{"type":"Feature","properties":{"n":"Simferopol","a":"RUS","p":358108,"r":7,"tr":"Akmescit"},"geometry":{"type":"Point","coordinates":[34.099,44.949]}},{"type":"Feature","properties":{"n":"Sirjan","a":"IRN","p":175000,"r":8},"geometry":{"type":"Point","coordinates":[55.73,29.47]}},{"type":"Feature","properties":{"n":"Sitia","a":"GRC","p":8833,"r":7},"geometry":{"type":"Point","coordinates":[26.099,35.2]}},{"type":"Feature","properties":{"n":"Sivas","a":"TUR","p":264022,"r":7},"geometry":{"type":"Point","coordinates":[37.035,39.745]}},{"type":"Feature","properties":{"n":"Siwa","a":"EGY","p":23080,"r":6},"geometry":{"type":"Point","coordinates":[25.517,29.2]}},{"type":"Feature","properties":{"n":"Skopje","a":"MKD","p":494087,"r":4,"cap":1,"tr":"Üsküp"},"geometry":{"type":"Point","coordinates":[21.433,42.0]}},{"type":"Feature","properties":{"n":"Sochi","a":"RUS","p":327608,"r":4,"tr":"Soçi"},"geometry":{"type":"Point","coordinates":[39.73,43.59]}},{"type":"Feature","properties":{"n":"Sofia","a":"BGR","p":1185000,"r":3,"cap":1,"tr":"Sofya"},"geometry":{"type":"Point","coordinates":[23.315,42.685]}},{"type":"Feature","properties":{"n":"Sohag","a":"EGY","p":600000,"r":7},"geometry":{"type":"Point","coordinates":[31.7,26.55]}},{"type":"Feature","properties":{"n":"Sparti","a":"GRC","p":16187,"r":7},"geometry":{"type":"Point","coordinates":[22.43,37.074]}},{"type":"Feature","properties":{"n":"Stavropol","a":"RUS","p":363064,"r":4},"geometry":{"type":"Point","coordinates":[41.98,45.05]}},{"type":"Feature","properties":{"n":"Suez","a":"EGY","p":508335,"r":4,"tr":"Süveyş"},"geometry":{"type":"Point","coordinates":[32.55,30.005]}},{"type":"Feature","properties":{"n":"Suhar","a":"OMN","p":151349,"r":6},"geometry":{"type":"Point","coordinates":[56.734,24.362]}},{"type":"Feature","properties":{"n":"Sukhumi","a":"GEO","p":81546,"r":6,"tr":"Sohum"},"geometry":{"type":"Point","coordinates":[41.02,43.02]}},{"type":"Feature","properties":{"n":"Sumqayt","a":"AZE","p":279159,"r":8,"tr":"Sumgayıt"},"geometry":{"type":"Point","coordinates":[49.63,40.58]}},{"type":"Feature","properties":{"n":"Sur","a":"OMN","p":71152,"r":6},"geometry":{"type":"Point","coordinates":[59.535,22.576]}},{"type":"Feature","properties":{"n":"Surt","a":"LBY","p":128123,"r":6,"tr":"Sirte"},"geometry":{"type":"Point","coordinates":[16.59,31.21]}},{"type":"Feature","properties":{"n":"Söke","a":"TUR","p":77341,"r":7},"geometry":{"type":"Point","coordinates":[27.41,37.751]}},{"type":"Feature","properties":{"n":"Tabriz","a":"IRN","p":1413000,"r":4,"tr":"Tebriz"},"geometry":{"type":"Point","coordinates":[46.299,38.088]}},{"type":"Feature","properties":{"n":"Tabuk","a":"SAU","p":547957,"r":4,"tr":"Tebük"},"geometry":{"type":"Point","coordinates":[36.555,28.384]}},{"type":"Feature","properties":{"n":"Tadmur","a":"SYR","p":55111,"r":7},"geometry":{"type":"Point","coordinates":[38.283,34.55]}},{"type":"Feature","properties":{"n":"Taganrog","a":"RUS","p":279056,"r":8},"geometry":{"type":"Point","coordinates":[38.92,47.23]}},{"type":"Feature","properties":{"n":"Tall Afar","a":"IRQ","p":144465,"r":7,"tr":"Telafer"},"geometry":{"type":"Point","coordinates":[42.45,36.376]}},{"type":"Feature","properties":{"n":"Tanta","a":"EGY","p":404901,"r":7},"geometry":{"type":"Point","coordinates":[31.0,30.79]}},{"type":"Feature","properties":{"n":"Taraz","a":"KAZ","p":358153,"r":4,"tr":"Taraz"},"geometry":{"type":"Point","coordinates":[71.365,42.9]}},{"type":"Feature","properties":{"n":"Tarsus","a":"TUR","p":894318,"r":7},"geometry":{"type":"Point","coordinates":[34.88,36.92]}},{"type":"Feature","properties":{"n":"Tartus","a":"SYR","p":162980,"r":7,"tr":"Tartus"},"geometry":{"type":"Point","coordinates":[35.887,34.885]}},{"type":"Feature","properties":{"n":"Tashkent","a":"UZB","p":2184000,"r":1,"cap":1,"tr":"Taşkent"},"geometry":{"type":"Point","coordinates":[69.269,41.304]}},{"type":"Feature","properties":{"n":"Tatvan","a":"TUR","p":73222,"r":8},"geometry":{"type":"Point","coordinates":[42.282,38.507]}},{"type":"Feature","properties":{"n":"Tbilisi","a":"GEO","p":1100000,"r":3,"cap":1,"tr":"Tiflis"},"geometry":{"type":"Point","coordinates":[44.789,41.727]}},{"type":"Feature","properties":{"n":"Tehran","a":"IRN","p":7873000,"r":1,"cap":1,"tr":"Tahran"},"geometry":{"type":"Point","coordinates":[51.422,35.674]}},{"type":"Feature","properties":{"n":"Tekirdağ","a":"TUR","p":122287,"r":7},"geometry":{"type":"Point","coordinates":[27.51,40.991]}},{"type":"Feature","properties":{"n":"Tel Aviv","a":"ISR","p":3112000,"r":2,"cap":1,"tr":"Tel Aviv"},"geometry":{"type":"Point","coordinates":[34.768,32.082]}},{"type":"Feature","properties":{"n":"Termiz","a":"UZB","p":177687,"r":6,"tr":"Termez"},"geometry":{"type":"Point","coordinates":[67.273,37.233]}},{"type":"Feature","properties":{"n":"Thessaloniki","a":"GRC","p":828000,"r":3,"tr":"Selanik"},"geometry":{"type":"Point","coordinates":[22.883,40.698]}},{"type":"Feature","properties":{"n":"Tikrit","a":"IRQ","p":56591,"r":7},"geometry":{"type":"Point","coordinates":[43.677,34.597]}},{"type":"Feature","properties":{"n":"Timișoara","a":"ROU","p":315053,"r":7,"tr":"Temeşvar"},"geometry":{"type":"Point","coordinates":[21.223,45.759]}},{"type":"Feature","properties":{"n":"Tirana","a":"ALB","p":895350,"r":3,"cap":1,"tr":"Tiran"},"geometry":{"type":"Point","coordinates":[19.819,41.328]}},{"type":"Feature","properties":{"n":"Tiraspol","a":"MDA","p":157000,"r":7},"geometry":{"type":"Point","coordinates":[29.64,46.853]}},{"type":"Feature","properties":{"n":"Tmassa","a":"LBY","p":500,"r":4},"geometry":{"type":"Point","coordinates":[15.8,26.367]}},{"type":"Feature","properties":{"n":"Tokat","a":"TUR","p":129702,"r":10},"geometry":{"type":"Point","coordinates":[36.563,40.306]}},{"type":"Feature","properties":{"n":"Trabzon","a":"TUR","p":764714,"r":6},"geometry":{"type":"Point","coordinates":[39.72,40.98]}},{"type":"Feature","properties":{"n":"Tripoli","a":"LBY","p":2189000,"r":2,"cap":1,"tr":"Trablusgarp"},"geometry":{"type":"Point","coordinates":[13.18,32.892]}},{"type":"Feature","properties":{"n":"Tripoli","a":"GRC","p":28970,"r":7},"geometry":{"type":"Point","coordinates":[22.379,37.509]}},{"type":"Feature","properties":{"n":"Tskhinvali","a":"GEO","p":38502,"r":8,"tr":"Tshinvali"},"geometry":{"type":"Point","coordinates":[43.975,42.232]}},{"type":"Feature","properties":{"n":"Tubruq","a":"LBY","p":263527,"r":6,"tr":"Tobruk"},"geometry":{"type":"Point","coordinates":[23.96,32.08]}},{"type":"Feature","properties":{"n":"Turkistan","a":"KAZ","p":97360,"r":6,"tr":"Türkistan"},"geometry":{"type":"Point","coordinates":[68.255,43.302]}},{"type":"Feature","properties":{"n":"Türkmenabat","a":"TKM","p":234817,"r":4,"tr":"Türkmenabat"},"geometry":{"type":"Point","coordinates":[63.58,39.11]}},{"type":"Feature","properties":{"n":"Türkmenbaşy","a":"TKM","p":68292,"r":4,"tr":"Türkmenbaşı"},"geometry":{"type":"Point","coordinates":[52.97,40.023]}},{"type":"Feature","properties":{"n":"Urgentch","a":"UZB","p":150110,"r":6,"tr":"Ürgenç"},"geometry":{"type":"Point","coordinates":[60.64,41.56]}},{"type":"Feature","properties":{"n":"Urmia","a":"IRN","p":577307,"r":8,"tr":"Urmiye"},"geometry":{"type":"Point","coordinates":[45.0,37.53]}},{"type":"Feature","properties":{"n":"Uroteppa","a":"TJK","p":156621,"r":7},"geometry":{"type":"Point","coordinates":[69.001,39.922]}},{"type":"Feature","properties":{"n":"Uşak","a":"TUR","p":152862,"r":7},"geometry":{"type":"Point","coordinates":[29.42,38.68]}},{"type":"Feature","properties":{"n":"Vadodara","a":"IND","p":1756000,"r":4},"geometry":{"type":"Point","coordinates":[73.178,22.312]}},{"type":"Feature","properties":{"n":"Valletta","a":"MLT","p":368250,"r":3,"cap":1,"tr":"Valetta"},"geometry":{"type":"Point","coordinates":[14.515,35.9]}},{"type":"Feature","properties":{"n":"Van","a":"TUR","p":371713,"r":7},"geometry":{"type":"Point","coordinates":[43.4,38.495]}},{"type":"Feature","properties":{"n":"Varamin","a":"IRN","p":179603,"r":8},"geometry":{"type":"Point","coordinates":[51.647,35.317]}},{"type":"Feature","properties":{"n":"Varna","a":"BGR","p":312770,"r":7,"tr":"Varna"},"geometry":{"type":"Point","coordinates":[27.895,43.216]}},{"type":"Feature","properties":{"n":"Vladikavkaz","a":"RUS","p":364630,"r":7,"tr":"Vladikafkas"},"geometry":{"type":"Point","coordinates":[44.67,43.05]}},{"type":"Feature","properties":{"n":"Volgodonsk","a":"RUS","p":167731,"r":6},"geometry":{"type":"Point","coordinates":[42.16,47.51]}},{"type":"Feature","properties":{"n":"Volos","a":"GRC","p":110632,"r":8,"tr":"Volos"},"geometry":{"type":"Point","coordinates":[22.95,39.37]}},{"type":"Feature","properties":{"n":"Xanthi","a":"GRC","p":50570,"r":7,"tr":"İskeçe"},"geometry":{"type":"Point","coordinates":[24.884,41.142]}},{"type":"Feature","properties":{"n":"Yalta","a":"RUS","p":79509,"r":6,"tr":"Yalta"},"geometry":{"type":"Point","coordinates":[34.159,44.499]}},{"type":"Feature","properties":{"n":"Yanbu al Bahr","a":"SAU","p":267590,"r":8},"geometry":{"type":"Point","coordinates":[38.049,24.094]}},{"type":"Feature","properties":{"n":"Yazd","a":"IRN","p":477905,"r":4,"tr":"Yezd"},"geometry":{"type":"Point","coordinates":[54.37,31.92]}},{"type":"Feature","properties":{"n":"Yerevan","a":"ARM","p":1102000,"r":3,"cap":1,"tr":"Erivan"},"geometry":{"type":"Point","coordinates":[44.512,40.183]}},{"type":"Feature","properties":{"n":"Yozgat","a":"TUR","p":87881,"r":10},"geometry":{"type":"Point","coordinates":[34.815,39.818]}},{"type":"Feature","properties":{"n":"Zabol","a":"IRN","p":233968,"r":6},"geometry":{"type":"Point","coordinates":[61.481,31.021]}},{"type":"Feature","properties":{"n":"Zagazig","a":"EGY","p":285097,"r":10},"geometry":{"type":"Point","coordinates":[31.517,30.583]}},{"type":"Feature","properties":{"n":"Zagreb","a":"HRV","p":722526,"r":3,"cap":1},"geometry":{"type":"Point","coordinates":[16.0,45.8]}},{"type":"Feature","properties":{"n":"Zahedan","a":"IRN","p":598887,"r":6,"tr":"Zahidan"},"geometry":{"type":"Point","coordinates":[60.83,29.5]}},{"type":"Feature","properties":{"n":"Zahlé","a":"LBN","p":78145,"r":7,"tr":"Zahle"},"geometry":{"type":"Point","coordinates":[35.904,33.85]}},{"type":"Feature","properties":{"n":"Zakho","a":"IRQ","p":134863,"r":7,"tr":"Zaho"},"geometry":{"type":"Point","coordinates":[42.687,37.145]}},{"type":"Feature","properties":{"n":"Zanjan","a":"IRN","p":357471,"r":8,"tr":"Zencan"},"geometry":{"type":"Point","coordinates":[48.5,36.67]}},{"type":"Feature","properties":{"n":"Zaporizhzhya","a":"UKR","p":788000,"r":6,"tr":"Zaporijya"},"geometry":{"type":"Point","coordinates":[35.175,47.859]}},{"type":"Feature","properties":{"n":"Zenica","a":"BIH","p":164423,"r":8,"tr":"Zenitsa"},"geometry":{"type":"Point","coordinates":[17.92,44.22]}},{"type":"Feature","properties":{"n":"Zhezqazghan","a":"KAZ","p":104357,"r":6},"geometry":{"type":"Point","coordinates":[67.77,47.78]}},{"type":"Feature","properties":{"n":"Zonguldak","a":"TUR","p":156918,"r":7},"geometry":{"type":"Point","coordinates":[31.78,41.43]}},{"type":"Feature","properties":{"n":"Çanakkale","a":"TUR","p":87791,"r":7},"geometry":{"type":"Point","coordinates":[26.406,40.146]}},{"type":"Feature","properties":{"n":"Çankırı","a":"TUR","p":71379,"r":10},"geometry":{"type":"Point","coordinates":[33.621,40.607]}},{"type":"Feature","properties":{"n":"Čačak","a":"SRB","p":170000,"r":7},"geometry":{"type":"Point","coordinates":[20.33,43.89]}},{"type":"Feature","properties":{"n":"İskenderun","a":"TUR","p":297943,"r":7},"geometry":{"type":"Point","coordinates":[36.17,36.58]}},{"type":"Feature","properties":{"n":"İzmir","a":"TUR","p":2587000,"r":4},"geometry":{"type":"Point","coordinates":[27.15,38.438]}},{"type":"Feature","properties":{"n":"İzmit","a":"TUR","p":466504,"r":7,"tr":"İzmit"},"geometry":{"type":"Point","coordinates":[29.931,40.776]}},{"type":"Feature","properties":{"n":"Şanlıurfa","a":"TUR","p":449549,"r":6},"geometry":{"type":"Point","coordinates":[38.795,37.17]}},{"type":"Feature","properties":{"n":"Ṭarābulus","a":"LBN","p":530000,"r":6,"tr":"Trablusşam"},"geometry":{"type":"Point","coordinates":[35.832,34.438]}}]}
