{"type": "FeatureCollection", "name": "tur-operation-areas", "description": "Türkiye's officially announced cross-border operation areas, whole areas only (handbook ADR 0015). Every feature has a status and an as-of date; 'ended' means the area no longer exists as a distinct Turkish-controlled area. Features with schematic=true have an approximate extent built from administrative boundaries. No bases, posts, units, positions or movements. See OPERATION-AREAS-SOURCES.md.","features":[
{"type":"Feature","properties":{"id":"tur-op-firat-kalkani","kind":"operation-area","name_tr":"Fırat Kalkanı Harekâtı bölgesi","name_en":"Operation Euphrates Shield area","operation_tr":"Fırat Kalkanı Harekâtı","operation_en":"Operation Euphrates Shield","announced":"2016-08-24","status":"ended","status_as_of":"2026-09-13","schematic":true,"note_tr":"Türkiye'nin ilan ettiği harekât bölgesi. Fırat Kalkanı Harekâtı 24 Ağustos 2016'da başlatıldı ve BM Güvenlik Konseyi'ne BM Şartı'nın 51. maddesi kapsamında bildirildi (S/2016/739). Bölge Azez, Mare, er-Rai (Çobanbey), El Bab ve Cerablus arasında kalır; Türkiye alanı 2.015 km² olarak açıkladı (S/2018/53). MGK, harekâtın başarıyla sonuçlandığını 29 Mart 2017'de açıkladı.","note_en":"Türkiye's announced operation area. Operation Euphrates Shield was launched on 24 August 2016 and notified to the UN Security Council under Article 51 of the UN Charter (S/2016/739). The area lies between A'zaz, Mare', al-Rai (Çobanbey), al-Bab and Jarabulus; Türkiye gave its size as 2,015 km² (S/2018/53). The National Security Council announced on 29 March 2017 that the operation had been successfully concluded.","status_note_tr":"Sona erdi (ayrı bir Türk kontrol alanı olarak). Harekât 29 Mart 2017'de tamamlandı (MGK). Suriye Millî Ordusu (SMO) grupları 2025'te Suriye devlet yapılarına katıldı; ISW'ye göre Suriye geçiş hükümeti, SMO'nun eskiden kontrol ettiği kuzey Halep kırsalının güvenlik ve idari sorumluluğunun tamamını taşıyor (21 Ocak 2026). MSB, Suriye'nin toprak bütünlüğünü ve 'tek devlet, tek ordu' anlayışını desteklediğini (14 Ağustos 2025; 3 Eylül 2026) ve faaliyetlerini Suriye hükümetiyle koordineli yürüttüğünü (1 Şubat 2026) belirtiyor. TSK'nın Suriye'deki görevi TBMM tezkeresine (30 Ekim 2025'ten itibaren üç yıl) dayanır; bu varlık haritada yalnızca ülke düzeyinde gösterilir.","status_note_en":"Ended (as a distinct Turkish-controlled area). The operation was concluded on 29 March 2017 (National Security Council). Syrian National Army (SNA) factions were absorbed into Syrian state structures in 2025; according to ISW, the Syrian transitional government bears full security and administrative responsibility over the northern Aleppo countryside the SNA formerly controlled (21 January 2026). The Ministry of National Defence says Türkiye supports Syria's territorial integrity and the 'one state, one army' principle (14 August 2025; 3 September 2026) and coordinates its activities with the Syrian government (1 February 2026). The Turkish Armed Forces' mission in Syria rests on the parliamentary mandate (three years from 30 October 2025); that presence is shown at country level only.","geometry_method_tr":"ŞEMATİK. OCHA COD-AB Suriye (HDX, CC BY-IGO) sınırlarından sekiz nahiyenin birleşimi: Azez, Suran, Ahterin ve Mare (Azez ilçesi), er-Rai ve El Bab (El Bab ilçesi), Cerablus ve Gandura (Cerablus ilçesi) — 2.330 km²; Türkiye'nin açıkladığı alan 2.015 km²'dir. Harekât sınırı nahiye sınırlarını izlemez (ör. Minnağ–Tel Rıfat çevresindeki bazı kenar kesimler bölgenin dışındaydı), bu yüzden şematik alan açıklanan alandan büyüktür. Tel Rıfat, Nubl, Tadef ve Arima nahiyeleri alınmadı. Sitenin Natural Earth 1:50m Suriye sınırına kırpıldı, 0,005° ile sadeleştirildi (Zeytin Dalı bölgesiyle ortak sınır korunarak): 2.291 km².","geometry_method_en":"SCHEMATIC. Union of eight sub-districts from the OCHA COD-AB Syria boundaries (HDX, CC BY-IGO): A'zaz, Suran, Aghtrin and Mare' (A'zaz district), Ar-Ra'ee and Al Bab (Al Bab district), Jarablus and Ghandorah (Jarablus district) — 2,330 km², against the 2,015 km² Türkiye announced. The operation's limits did not follow sub-district lines (e.g. some edges around Menagh–Tell Rifaat stayed outside the area), so the schematic area is larger than the announced one. Tall Refaat, Nabul, Tadaf and A'rima sub-districts are not included. Clipped to Syria as drawn on the site (Natural Earth 1:50m) and simplified at 0.005°, keeping the edge shared with the Olive Branch area: 2,291 km².","area_km2":2291,"admin_areas":[{"pcode":"SY020400","name_en":"A'zaz","name_tr":"Azez"},{"pcode":"SY020405","name_en":"Suran","name_tr":"Suran"},{"pcode":"SY020401","name_en":"Aghtrin","name_tr":"Ahterin"},{"pcode":"SY020403","name_en":"Mare'","name_tr":"Mare"},{"pcode":"SY020203","name_en":"Ar-Ra'ee","name_tr":"er-Rai (Çobanbey)"},{"pcode":"SY020200","name_en":"Al Bab","name_tr":"El Bab"},{"pcode":"SY020800","name_en":"Jarablus","name_tr":"Cerablus"},{"pcode":"SY020801","name_en":"Ghandorah","name_tr":"Gandura"}],"attribution":"Boundaries: OCHA COD-AB Syria (United Nations Cartographic Section and partners; OCHA / HDX), CC BY-IGO 3.0 — modified (sub-districts dissolved, clipped, simplified). Not an official United Nations boundary; no endorsement implied.","sources":[{"title":"Letter dated 24 August 2016 from the Permanent Representative of Turkey to the United Nations addressed to the President of the Security Council (S/2016/739)","publisher":"United Nations Security Council","url":"https://documents.un.org/api/symbol/access?l=en&t=pdf&s=S/2016/739","date":"2016-08-24","accessed":"2026-09-13"},{"title":"29 Mart 2017 Tarihli Toplantı — basın bildirisi (Fırat Kalkanı Harekâtı'nın başarıyla sonuçlandığı)","publisher":"Millî Güvenlik Kurulu Genel Sekreterliği","url":"https://www.mgk.gov.tr/index.php/29-mart-2017-tarihli-toplanti","date":"2017-03-29","accessed":"2026-09-13"},{"title":"Identical letters dated 20 January 2018 from the Chargé d'affaires a.i. of the Permanent Mission of Turkey to the United Nations addressed to the Secretary-General and the President of the Security Council (S/2018/53)","publisher":"United Nations Security Council","url":"https://documents.un.org/api/symbol/access?l=en&t=pdf&s=S/2018/53","date":"2018-01-20","accessed":"2026-09-13"},{"title":"Türk askerinin Irak ve Suriye'deki görev süresinin uzatılmasına ilişkin tezkere Genel Kurulda kabul edildi","publisher":"Türkiye Büyük Millet Meclisi","url":"https://www.tbmm.gov.tr/Haber/Detay?Id=98232409-71f0-4b95-8244-019a08a2e22e","date":"2025-10-22","accessed":"2026-09-13"},{"title":"MSB: Suriye'nin siyasi birliğini, toprak bütünlüğünü savunuyoruz (Ortak Eğitim ve Danışmanlık Mutabakat Muhtırası, 13 Ağustos 2025)","publisher":"Anadolu Ajansı","url":"https://www.aa.com.tr/tr/gundem/msb-suriyenin-siyasi-birligini-toprak-butunlugunu-savunuyoruz/3659254","date":"2025-08-14","accessed":"2026-09-13"},{"title":"MSB: Suriye'ye yönelik desteğimiz devam edecek (MSB haftalık basın bilgilendirmesi)","publisher":"TRT Haber","url":"https://www.trthaber.com/haber/gundem/msb-suriyeye-yonelik-destegimiz-devam-edecek-955777.html","date":"2026-09-03","accessed":"2026-09-13"},{"title":"Türkiye will only withdraw from Syria after terror threat ends: Report","publisher":"Daily Sabah","url":"https://www.dailysabah.com/politics/turkiye-will-only-withdraw-from-syria-after-terror-threat-ends-report/news","date":"2026-02-01","accessed":"2026-09-13"},{"title":"Iran Update, January 21, 2026","publisher":"Institute for the Study of War / Critical Threats","url":"https://understandingwar.org/research/middle-east/iran-update-january-21-2026/","date":"2026-01-21","accessed":"2026-09-13"},{"title":"Syrian Arab Republic – Subnational Administrative Boundaries (COD-AB), syr_admin_boundaries.shp.zip","publisher":"OCHA / HDX (United Nations Cartographic Section and partners)","url":"https://data.humdata.org/dataset/cod-ab-syr","date":"2026-01-26","accessed":"2026-09-13"}]},"geometry":{"type":"Polygon","coordinates":[[[36.98,36.534],[36.995,36.535],[37.006,36.528],[37.017,36.521],[37.045,36.509],[37.057,36.511],[37.069,36.531],[37.081,36.531],[37.112,36.522],[37.148,36.524],[37.159,36.521],[37.171,36.5],[37.168,36.476],[37.156,36.459],[37.154,36.442],[37.157,36.425],[37.161,36.379],[37.167,36.362],[37.186,36.373],[37.209,36.374],[37.217,36.368],[37.223,36.355],[37.236,36.343],[37.26,36.352],[37.275,36.361],[37.31,36.377],[37.323,36.362],[37.318,36.356],[37.309,36.327],[37.311,36.315],[37.324,36.291],[37.324,36.268],[37.337,36.254],[37.347,36.235],[37.34,36.212],[37.358,36.214],[37.364,36.209],[37.386,36.216],[37.385,36.227],[37.392,36.255],[37.399,36.268],[37.431,36.275],[37.436,36.279],[37.427,36.303],[37.414,36.318],[37.429,36.323],[37.448,36.325],[37.467,36.333],[37.479,36.335],[37.505,36.352],[37.544,36.353],[37.552,36.344],[37.568,36.348],[37.577,36.354],[37.584,36.368],[37.586,36.386],[37.596,36.389],[37.61,36.377],[37.634,36.376],[37.647,36.393],[37.62,36.415],[37.605,36.44],[37.596,36.453],[37.585,36.458],[37.535,36.47],[37.526,36.476],[37.516,36.491],[37.517,36.516],[37.52,36.535],[37.556,36.53],[37.564,36.533],[37.575,36.545],[37.57,36.563],[37.576,36.579],[37.591,36.587],[37.612,36.592],[37.619,36.575],[37.612,36.55],[37.614,36.543],[37.625,36.534],[37.645,36.532],[37.652,36.52],[37.661,36.52],[37.672,36.526],[37.704,36.534],[37.724,36.53],[37.728,36.535],[37.734,36.556],[37.739,36.582],[37.748,36.599],[37.75,36.624],[37.762,36.633],[37.783,36.63],[37.793,36.633],[37.812,36.661],[37.836,36.66],[37.861,36.649],[37.875,36.639],[37.909,36.639],[37.923,36.657],[37.926,36.667],[37.945,36.674],[37.95,36.663],[37.95,36.628],[37.96,36.627],[37.966,36.613],[37.975,36.61],[37.987,36.616],[38.01,36.62],[38.022,36.629],[38.057,36.644],[38.063,36.659],[38.079,36.658],[38.092,36.67],[38.075,36.678],[38.073,36.688],[38.061,36.711],[38.057,36.737],[38.038,36.754],[38.028,36.775],[38.027,36.787],[38.034,36.807],[38.034,36.813],[38.024,36.827],[37.998,36.824],[37.977,36.818],[37.958,36.81],[37.929,36.794],[37.908,36.786],[37.862,36.774],[37.814,36.759],[37.791,36.749],[37.767,36.747],[37.746,36.748],[37.72,36.742],[37.562,36.69],[37.534,36.676],[37.521,36.667],[37.502,36.649],[37.485,36.641],[37.461,36.638],[37.436,36.642],[37.435,36.642],[37.327,36.645],[37.196,36.655],[37.185,36.654],[37.175,36.655],[37.118,36.654],[37.104,36.627],[37.091,36.624],[37.08,36.629],[37.048,36.653],[37.034,36.657],[37.03,36.654],[37.027,36.635],[37.016,36.617],[36.999,36.598],[36.983,36.57],[36.978,36.545],[36.98,36.534]]]}},
{"type":"Feature","properties":{"id":"tur-op-zeytin-dali","kind":"operation-area","name_tr":"Zeytin Dalı Harekâtı bölgesi (Afrin)","name_en":"Operation Olive Branch area (Afrin)","operation_tr":"Zeytin Dalı Harekâtı","operation_en":"Operation Olive Branch","announced":"2018-01-20","status":"ended","status_as_of":"2026-09-13","schematic":false,"note_tr":"Türkiye'nin ilan ettiği harekât bölgesi. Zeytin Dalı Harekâtı 20 Ocak 2018'de Afrin'e yönelik olarak başlatıldı ve BM Güvenlik Konseyi'ne 51. madde kapsamında bildirildi (S/2018/53). Cumhurbaşkanı Erdoğan, Afrin şehir merkezinin 18 Mart 2018'de tamamen kontrol altına alındığını açıkladı.","note_en":"Türkiye's announced operation area. Operation Olive Branch was launched against Afrin on 20 January 2018 and notified to the UN Security Council under Article 51 (S/2018/53). President Erdoğan announced on 18 March 2018 that Afrin city centre was fully under control.","status_note_tr":"Sona erdi (ayrı bir Türk kontrol alanı olarak). Suriye geçiş hükümetinin güvenlik güçleri 6 Şubat 2025'te Afrin ve Cinderes'e girdi (ISW; Long War Journal). Güvenlik kaynaklarına göre Türk polisi ve jandarması Afrin'deki güvenlik görevini kademeli olarak Suriye makamlarına devretti (Daily Sabah, 1 Şubat 2026). ISW'ye göre SMO'nun eski kontrol alanının güvenlik ve idari sorumluluğu Suriye hükümetindedir (21 Ocak 2026). Türkiye harekâtın sona erdiğini ayrıca ilan etmedi; durum, bölgenin artık ayrı bir Türk kontrol alanı olmamasına dayanır. TSK varlığı haritada yalnızca ülke düzeyinde gösterilir.","status_note_en":"Ended (as a distinct Turkish-controlled area). Syrian transitional government security forces entered Afrin and Jandairis on 6 February 2025 (ISW; Long War Journal). According to security sources, Turkish police and gendarmerie gradually handed security in Afrin over to Syrian authorities (Daily Sabah, 1 February 2026). According to ISW, security and administrative responsibility for the area the SNA formerly controlled lies with the Syrian government (21 January 2026). Türkiye has not separately announced an end to the operation; the status reflects that the area no longer exists as a distinct Turkish-controlled area. Turkish military presence is shown at country level only.","geometry_method_tr":"OCHA COD-AB Suriye (HDX, CC BY-IGO) sınırlarından Afrin ilçesinin tamamı: yedi nahiye (Afrin, Bülbül, Cinderes, Mabatlı, Raco, Şeran, Şeyh Hadid) — 1.841 km². İlan edilen hedef 'Afrin'dir (S/2018/53); bu katmanda ilçenin idari sınırıyla gösterildi. Azez ilçesindeki Tel Rıfat bölgeye dahil değildir. Sitenin Natural Earth 1:50m Suriye sınırına kırpıldı, 0,005° ile sadeleştirildi (Fırat Kalkanı bölgesiyle ortak sınır korunarak): 1.736 km².","geometry_method_en":"The whole Afrin district from the OCHA COD-AB Syria boundaries (HDX, CC BY-IGO): seven sub-districts (Afrin, Bulbul, Jandairis, Ma'btali, Raju, Sharan, Sheikh El-Hadid) — 1,841 km². The announced target is 'Afrin' (S/2018/53), shown here by the district's administrative boundary. Tell Rifaat (A'zaz district) is not part of the area. Clipped to Syria as drawn on the site (Natural Earth 1:50m) and simplified at 0.005°, keeping the edge shared with the Euphrates Shield area: 1,736 km².","area_km2":1736,"admin_areas":[{"pcode":"SY020300","name_en":"Afrin","name_tr":"Afrin"},{"pcode":"SY020301","name_en":"Bulbul","name_tr":"Bülbül"},{"pcode":"SY020302","name_en":"Jandairis","name_tr":"Cinderes"},{"pcode":"SY020303","name_en":"Raju","name_tr":"Raco"},{"pcode":"SY020304","name_en":"Sharan","name_tr":"Şeran"},{"pcode":"SY020305","name_en":"Sheikh El-Hadid","name_tr":"Şeyh Hadid"},{"pcode":"SY020306","name_en":"Ma'btali","name_tr":"Mabatlı"}],"attribution":"Boundaries: OCHA COD-AB Syria (United Nations Cartographic Section and partners; OCHA / HDX), CC BY-IGO 3.0 — modified (sub-districts dissolved, clipped, simplified). Not an official United Nations boundary; no endorsement implied.","sources":[{"title":"Identical letters dated 20 January 2018 from the Chargé d'affaires a.i. of the Permanent Mission of Turkey to the United Nations addressed to the Secretary-General and the President of the Security Council (S/2018/53)","publisher":"United Nations Security Council","url":"https://documents.un.org/api/symbol/access?l=en&t=pdf&s=S/2018/53","date":"2018-01-20","accessed":"2026-09-13"},{"title":"“Afrin’de artık terör örgütünün paçavraları değil, huzur ve güvenin sembolü Türk bayrağı dalgalanıyor”","publisher":"T.C. Cumhurbaşkanlığı","url":"https://www.tccb.gov.tr/haberler/410/91807/afrinde-artik-teror-orgutunun-pacavralari-degil-huzur-ve-guvenin-sembolu-turk-bayragi-dalgalaniyor","date":"2018-03-18","accessed":"2026-09-13"},{"title":"Türk askerinin Irak ve Suriye'deki görev süresinin uzatılmasına ilişkin tezkere Genel Kurulda kabul edildi","publisher":"Türkiye Büyük Millet Meclisi","url":"https://www.tbmm.gov.tr/Haber/Detay?Id=98232409-71f0-4b95-8244-019a08a2e22e","date":"2025-10-22","accessed":"2026-09-13"},{"title":"MSB: Suriye'nin siyasi birliğini, toprak bütünlüğünü savunuyoruz (Ortak Eğitim ve Danışmanlık Mutabakat Muhtırası, 13 Ağustos 2025)","publisher":"Anadolu Ajansı","url":"https://www.aa.com.tr/tr/gundem/msb-suriyenin-siyasi-birligini-toprak-butunlugunu-savunuyoruz/3659254","date":"2025-08-14","accessed":"2026-09-13"},{"title":"MSB: Suriye'ye yönelik desteğimiz devam edecek (MSB haftalık basın bilgilendirmesi)","publisher":"TRT Haber","url":"https://www.trthaber.com/haber/gundem/msb-suriyeye-yonelik-destegimiz-devam-edecek-955777.html","date":"2026-09-03","accessed":"2026-09-13"},{"title":"Türkiye will only withdraw from Syria after terror threat ends: Report","publisher":"Daily Sabah","url":"https://www.dailysabah.com/politics/turkiye-will-only-withdraw-from-syria-after-terror-threat-ends-report/news","date":"2026-02-01","accessed":"2026-09-13"},{"title":"Iran Update, February 6, 2025","publisher":"Institute for the Study of War / Critical Threats","url":"https://www.understandingwar.org/backgrounder/iran-update-february-6-2025","date":"2025-02-06","accessed":"2026-09-13"},{"title":"Syrian government forces enter Afrin, signaling a change in control","publisher":"FDD's Long War Journal","url":"https://www.longwarjournal.org/archives/2025/02/syrian-government-forces-enter-afrin-signaling-a-change-in-control.php","date":"2025-02-06","accessed":"2026-09-13"},{"title":"Iran Update, January 21, 2026","publisher":"Institute for the Study of War / Critical Threats","url":"https://understandingwar.org/research/middle-east/iran-update-january-21-2026/","date":"2026-01-21","accessed":"2026-09-13"},{"title":"Syrian Arab Republic – Subnational Administrative Boundaries (COD-AB), syr_admin_boundaries.shp.zip","publisher":"OCHA / HDX (United Nations Cartographic Section and partners)","url":"https://data.humdata.org/dataset/cod-ab-syr","date":"2026-01-26","accessed":"2026-09-13"}]},"geometry":{"type":"Polygon","coordinates":[[[36.745,36.338],[36.751,36.333],[36.76,36.313],[36.775,36.315],[36.795,36.322],[36.798,36.336],[36.815,36.342],[36.846,36.343],[36.856,36.336],[36.879,36.306],[36.894,36.299],[36.913,36.302],[36.925,36.321],[36.931,36.34],[36.925,36.382],[36.927,36.402],[36.933,36.413],[36.965,36.417],[36.98,36.414],[36.999,36.405],[37.011,36.408],[37.019,36.419],[37.02,36.443],[37.006,36.471],[36.988,36.487],[36.985,36.497],[37.006,36.528],[36.995,36.535],[36.98,36.534],[36.978,36.545],[36.983,36.57],[36.999,36.598],[37.016,36.617],[37.027,36.635],[37.03,36.654],[37.034,36.657],[37.028,36.661],[37.032,36.674],[36.985,36.703],[36.984,36.703],[36.941,36.758],[36.776,36.793],[36.67,36.8],[36.633,36.766],[36.624,36.747],[36.635,36.728],[36.639,36.712],[36.619,36.68],[36.606,36.672],[36.592,36.65],[36.588,36.631],[36.601,36.601],[36.604,36.579],[36.591,36.538],[36.583,36.523],[36.573,36.512],[36.553,36.501],[36.555,36.486],[36.568,36.468],[36.569,36.445],[36.576,36.439],[36.577,36.425],[36.585,36.412],[36.587,36.402],[36.593,36.394],[36.616,36.393],[36.624,36.388],[36.62,36.375],[36.628,36.354],[36.612,36.341],[36.608,36.333],[36.612,36.328],[36.621,36.329],[36.639,36.336],[36.659,36.334],[36.669,36.326],[36.669,36.32],[36.68,36.322],[36.715,36.323],[36.729,36.328],[36.726,36.338],[36.745,36.338]]]}},
{"type":"Feature","properties":{"id":"tur-op-bahar-kalkani","kind":"operation-area","name_tr":"Bahar Kalkanı Harekâtı bölgesi (İdlib)","name_en":"Operation Spring Shield area (Idlib)","operation_tr":"Bahar Kalkanı Harekâtı","operation_en":"Operation Spring Shield","announced":"2020-03-01","status":"ended","status_as_of":"2026-09-13","schematic":true,"note_tr":"Türkiye'nin ilan ettiği harekât bölgesi. Harekât 27 Şubat 2020'de başladı; Millî Savunma Bakanı Hulusi Akar 1 Mart 2020'de adını 'Bahar Kalkanı' olarak açıkladı ve faaliyetin BM Şartı'nın 51. maddesi kapsamındaki meşru müdafaa hakkı ile Adana, Astana ve Soçi mutabakatları çerçevesinde İdlib'de yürütüldüğünü belirtti. Bölge resmî olarak koordinatlarla değil, 'İdlib' olarak ilan edildi; bu yüzden harita İdlib ilini (vilayet) ilanın çerçevesi olarak çizer.","note_en":"Türkiye's announced operation area. The operation began on 27 February 2020; Minister of National Defence Hulusi Akar announced its name as 'Spring Shield' on 1 March 2020 and said the activity was being conducted in Idlib under the right of self-defence in Article 51 of the UN Charter and within the framework of the Adana, Astana and Sochi understandings. The area was announced as 'Idlib' and never with coordinates, so the map draws the governorate as the frame of that announcement.","status_note_tr":"Sona erdi. Harekât, 5 Mart 2020 Moskova görüşmesinin ardından 6 Mart 2020'de yürürlüğe giren Türkiye–Rusya ateşkesiyle sona erdi. İdlib'de Soçi çerçevesindeki varlık devam etti; bu harita TSK varlığını yalnızca ülke düzeyinde gösterir ve bölge içindeki kontrol hattını, gözlem noktalarını veya birlikleri çizmez (ADR 0015).","status_note_en":"Ended. The operation ended with the Türkiye–Russia ceasefire that took effect on 6 March 2020 after the Moscow talks of 5 March. Presence in Idlib under the Sochi framework continued; this map shows Turkish military presence at country level only and draws no line of control, no observation posts and no units inside the area (ADR 0015).","geometry_method_tr":"ŞEMATİK. OCHA COD-AB Suriye (HDX, CC BY-IGO) sınırlarından İdlib ilinin 26 nahiyesinin birleşimi (5.416 km²). İlan koordinat içermediği için derinlik sınırı uygulanmadı ve il sınırı olduğu gibi alındı; kenarlar idari sınırlardır ve harekâtın fiilî sınırlarıyla örtüşmez. Sitenin Natural Earth 1:50m Suriye sınırına kırpıldı, 0,005° ile sadeleştirildi: 5.392 km².","geometry_method_en":"SCHEMATIC. Union of the 26 sub-districts of Idleb governorate from the OCHA COD-AB Syria boundaries (HDX, CC BY-IGO), 5,416 km². The announcement carried no coordinates, so no depth limit is applied and the governorate boundary is taken as it is; the edges are administrative boundaries and do not match the operation's actual limits. Clipped to Syria as drawn on the site (Natural Earth 1:50m) and simplified at 0.005°: 5,392 km².","area_km2":5392,"admin_areas":[{"pcode":"SY070000","name_en":"Idleb","name_tr":"İdlib"},{"pcode":"SY070001","name_en":"Abul Thohur","name_tr":"Ebu Duhur"},{"pcode":"SY070002","name_en":"Bennsh","name_tr":"Binniş"},{"pcode":"SY070003","name_en":"Saraqab","name_tr":"Sarakib"},{"pcode":"SY070004","name_en":"Teftnaz","name_tr":"Teftenaz"},{"pcode":"SY070005","name_en":"Maaret Tamsrin","name_tr":"Maarettemsrin"},{"pcode":"SY070006","name_en":"Sarmin","name_tr":"Sermin"},{"pcode":"SY070200","name_en":"Ma'arrat An Nu'man","name_tr":"Maarretünnuman"},{"pcode":"SY070201","name_en":"Khan Shaykun","name_tr":"Han Şeyhun"},{"pcode":"SY070202","name_en":"Sanjar","name_tr":"Sincar"},{"pcode":"SY070203","name_en":"Kafr Nobol","name_tr":"Kefernebil"},{"pcode":"SY070204","name_en":"Tamanaah","name_tr":"Tamania"},{"pcode":"SY070205","name_en":"Heish","name_tr":"Heyş"},{"pcode":"SY070300","name_en":"Harim","name_tr":"Harim"},{"pcode":"SY070301","name_en":"Dana","name_tr":"Deyr Hassan (Dana)"},{"pcode":"SY070302","name_en":"Salqin","name_tr":"Salkin"},{"pcode":"SY070303","name_en":"Kafr Takharim","name_tr":"Kefertaharim"},{"pcode":"SY070304","name_en":"Qourqeena","name_tr":"Kurkina"},{"pcode":"SY070305","name_en":"Armanaz","name_tr":"Armanaz"},{"pcode":"SY070400","name_en":"Jisr-Ash-Shugur","name_tr":"Cisrüşşuğur"},{"pcode":"SY070401","name_en":"Badama","name_tr":"Bedama"},{"pcode":"SY070402","name_en":"Darkosh","name_tr":"Darkuş"},{"pcode":"SY070403","name_en":"Janudiyeh","name_tr":"Cenudiye"},{"pcode":"SY070500","name_en":"Ariha","name_tr":"Erîha"},{"pcode":"SY070501","name_en":"Ehsem","name_tr":"Ehsim"},{"pcode":"SY070502","name_en":"Mhambal","name_tr":"Muhambil"}],"attribution":"Boundaries: OCHA COD-AB Syria (United Nations Cartographic Section and partners; OCHA / HDX), CC BY-IGO 3.0 — modified (sub-districts dissolved, clipped, simplified). Not an official United Nations boundary; no endorsement implied.","sources":[{"title":"Bakan Akar: İdlib'de başlatılan Bahar Kalkanı Harekatı başarıyla sürdürülmekte","publisher":"Anadolu Ajansı","url":"https://www.aa.com.tr/tr/bahar-kalkani-harekati/bakan-akar-idlibde-baslatilan-bahar-kalkani-harekati-basariyla-surdurulmekte/1750603","date":"2020-03-01","accessed":"2026-09-19"},{"title":"Suriye'de 2020'ye Bahar Kalkanı Harekatı damgasını vurdu","publisher":"Anadolu Ajansı","url":"https://www.aa.com.tr/tr/bahar-kalkani-harekati/suriyede-2020ye-bahar-kalkani-harekati-damgasini-vurdu/2092130","date":"2020-12-25","accessed":"2026-09-19"},{"title":"Syrian Arab Republic – Subnational Administrative Boundaries (COD-AB), syr_admin_boundaries.shp.zip","publisher":"OCHA / HDX (United Nations Cartographic Section and partners)","url":"https://data.humdata.org/dataset/cod-ab-syr","date":"2026-01-26","accessed":"2026-09-13"}]},"geometry":{"type":"Polygon","coordinates":[[[36.627,36.218],[36.609,36.218],[36.592,36.227],[36.564,36.223],[36.489,36.22],[36.482,36.205],[36.471,36.202],[36.458,36.208],[36.445,36.21],[36.42,36.203],[36.378,36.172],[36.377,36.17],[36.377,36.169],[36.392,36.143],[36.381,36.119],[36.386,36.099],[36.398,36.084],[36.389,36.068],[36.395,36.052],[36.392,36.04],[36.381,36.026],[36.382,36.01],[36.379,36.001],[36.368,35.995],[36.344,35.992],[36.332,35.998],[36.296,35.986],[36.295,35.98],[36.306,35.961],[36.29,35.954],[36.279,35.955],[36.255,35.964],[36.237,35.962],[36.212,35.945],[36.2,35.936],[36.183,35.898],[36.189,35.884],[36.183,35.836],[36.169,35.815],[36.155,35.82],[36.148,35.795],[36.151,35.789],[36.169,35.785],[36.189,35.775],[36.198,35.767],[36.208,35.753],[36.257,35.75],[36.279,35.744],[36.294,35.752],[36.314,35.747],[36.317,35.76],[36.332,35.758],[36.346,35.743],[36.341,35.735],[36.346,35.72],[36.364,35.721],[36.368,35.716],[36.377,35.718],[36.381,35.726],[36.394,35.721],[36.41,35.705],[36.411,35.691],[36.406,35.676],[36.387,35.675],[36.387,35.67],[36.401,35.669],[36.402,35.662],[36.396,35.648],[36.397,35.638],[36.395,35.612],[36.405,35.606],[36.408,35.597],[36.402,35.596],[36.394,35.58],[36.397,35.569],[36.392,35.559],[36.393,35.543],[36.397,35.538],[36.425,35.535],[36.43,35.53],[36.445,35.535],[36.449,35.525],[36.446,35.517],[36.459,35.506],[36.457,35.477],[36.474,35.476],[36.475,35.463],[36.507,35.454],[36.508,35.443],[36.526,35.432],[36.517,35.416],[36.519,35.408],[36.539,35.41],[36.555,35.409],[36.585,35.421],[36.589,35.417],[36.588,35.403],[36.596,35.404],[36.625,35.401],[36.64,35.395],[36.639,35.377],[36.651,35.38],[36.657,35.396],[36.67,35.4],[36.675,35.405],[36.704,35.403],[36.711,35.404],[36.746,35.403],[36.79,35.408],[36.796,35.414],[36.814,35.411],[36.839,35.413],[36.861,35.412],[36.875,35.405],[36.88,35.391],[36.879,35.382],[36.896,35.378],[36.917,35.383],[36.93,35.384],[36.948,35.38],[36.954,35.383],[36.957,35.395],[36.967,35.404],[36.989,35.413],[36.997,35.431],[37.01,35.427],[37.016,35.413],[37.035,35.412],[37.039,35.408],[37.08,35.411],[37.104,35.429],[37.107,35.442],[37.102,35.459],[37.104,35.469],[37.117,35.472],[37.122,35.467],[37.143,35.459],[37.161,35.489],[37.161,35.505],[37.166,35.513],[37.182,35.517],[37.195,35.533],[37.196,35.542],[37.202,35.554],[37.188,35.558],[37.175,35.55],[37.167,35.553],[37.156,35.583],[37.143,35.588],[37.111,35.591],[37.121,35.605],[37.118,35.61],[37.145,35.636],[37.128,35.644],[37.135,35.668],[37.123,35.673],[37.111,35.671],[37.103,35.674],[37.1,35.687],[37.11,35.702],[37.12,35.708],[37.12,35.727],[37.117,35.74],[37.105,35.742],[37.104,35.747],[37.115,35.749],[37.12,35.758],[37.108,35.765],[37.123,35.781],[37.137,35.781],[37.137,35.796],[37.115,35.802],[37.115,35.809],[37.12,35.829],[37.103,35.829],[37.103,35.82],[37.092,35.819],[37.068,35.833],[37.066,35.84],[37.053,35.837],[37.033,35.843],[37.031,35.825],[37.025,35.817],[37.019,35.82],[37.006,35.818],[36.99,35.806],[36.985,35.812],[36.985,35.825],[36.991,35.836],[36.981,35.838],[36.977,35.845],[36.959,35.85],[36.954,35.863],[36.96,35.87],[36.956,35.883],[36.938,35.889],[36.935,35.898],[36.942,35.904],[36.936,35.916],[36.92,35.913],[36.902,35.914],[36.9,35.925],[36.888,35.936],[36.879,35.933],[36.876,35.938],[36.875,35.96],[36.868,35.971],[36.868,35.982],[36.873,35.988],[36.872,36.001],[36.875,36.015],[36.883,36.024],[36.879,36.044],[36.857,36.044],[36.845,36.04],[36.836,36.054],[36.834,36.065],[36.807,36.072],[36.781,36.066],[36.768,36.068],[36.741,36.085],[36.744,36.1],[36.755,36.105],[36.75,36.115],[36.732,36.121],[36.725,36.126],[36.718,36.142],[36.71,36.146],[36.715,36.155],[36.733,36.157],[36.743,36.163],[36.76,36.165],[36.773,36.186],[36.765,36.191],[36.774,36.195],[36.781,36.207],[36.798,36.217],[36.812,36.215],[36.828,36.217],[36.833,36.231],[36.84,36.234],[36.836,36.249],[36.822,36.25],[36.824,36.258],[36.816,36.268],[36.823,36.282],[36.815,36.284],[36.795,36.281],[36.792,36.283],[36.787,36.303],[36.766,36.304],[36.76,36.313],[36.751,36.333],[36.745,36.338],[36.726,36.338],[36.729,36.328],[36.715,36.323],[36.68,36.322],[36.669,36.32],[36.671,36.302],[36.695,36.297],[36.7,36.292],[36.692,36.276],[36.696,36.266],[36.706,36.255],[36.701,36.244],[36.684,36.237],[36.675,36.229],[36.641,36.229],[36.627,36.218]]]}},
{"type":"Feature","properties":{"id":"tur-op-baris-pinari","kind":"operation-area","name_tr":"Barış Pınarı Harekâtı bölgesi (Tel Abyad – Resulayn)","name_en":"Operation Peace Spring area (Tell Abyad – Ras al-Ayn)","operation_tr":"Barış Pınarı Harekâtı","operation_en":"Operation Peace Spring","announced":"2019-10-09","status":"ended","status_as_of":"2026-09-13","schematic":true,"note_tr":"Türkiye'nin ilan ettiği harekât bölgesi. Barış Pınarı Harekâtı 9 Ekim 2019'da başlatıldı ve BM Güvenlik Konseyi'ne 51. madde kapsamında bildirildi (S/2019/804). 17 Ekim 2019 Türkiye–ABD ortak açıklaması harekâtın durdurulmasını düzenledi; 22 Ekim 2019 Türkiye–Rusya Mutabakat Muhtırası mevcut Barış Pınarı Harekâtı alanını Tel Abyad ve Resulayn'ı içine alan, 32 km derinliğinde bir alan olarak tanımlar.","note_en":"Türkiye's announced operation area. Operation Peace Spring was launched on 9 October 2019 and notified to the UN Security Council under Article 51 (S/2019/804). The Türkiye–US joint statement of 17 October 2019 provided for halting the operation; the Türkiye–Russia Memorandum of Understanding of 22 October 2019 describes the current Operation Peace Spring area as covering Tell Abyad and Ras al-Ayn, with a depth of 32 km.","status_note_tr":"Sona erdi (ayrı bir Türk kontrol alanı olarak). ISW'ye göre Suriye hükümeti güvenlik birimleri 'Barış Pınarı' bölgesinin genelinde görev yapıyor ve Tel Abyad ile Resulayn sınır kapılarını kontrol ediyor (21 Ocak 2026). Suriye hükümeti ile SDG 18 Ocak 2026'da ateşkes ve entegrasyon anlaşması açıkladı (Dışişleri Bakanlığı açıklaması No: 9); SDG, Suriye ordusuna katılımın tamamlandığını belirterek 25 Ağustos 2026'da kendini feshettiğini açıkladı (France 24). 2019 düzenlemeleri alanı YPG'nin geri çekilmesi üzerine kurmuştu. Türkiye bölgenin sona erdiğini ayrıca ilan etmedi; durum, bölgenin artık ayrı bir Türk kontrol alanı olmamasına dayanır. TSK varlığı haritada yalnızca ülke düzeyinde gösterilir.","status_note_en":"Ended (as a distinct Turkish-controlled area). According to ISW, Syrian government security services operate across the 'Peace Spring' region and the Syrian government controls the Tell Abyad and Ras al-Ayn border crossings (21 January 2026). The Syrian government and the SDF announced a ceasefire and integration agreement on 18 January 2026 (Turkish MFA statement No. 9); on 25 August 2026 the SDF announced its dissolution after completing its integration into the Syrian army (France 24). The 2019 arrangements defined the area around the YPG's withdrawal. Türkiye has not separately announced an end to the area; the status reflects that it no longer exists as a distinct Turkish-controlled area. Turkish military presence is shown at country level only.","geometry_method_tr":"ŞEMATİK. OCHA COD-AB Suriye (HDX, CC BY-IGO) sınırlarından Tel Abyad, Süluk ve Ayn İsa (Tel Abyad ilçesi) ile Resulayn (Resulayn ilçesi) nahiyelerinin birleşimi (7.666 km²); Soçi Mutabakat Muhtırası'ndaki 32 km derinliğe göre Türkiye sınırından (Natural Earth 10m) 32 km ile sınırlandı (yerel LAEA izdüşümünde tampon). Ayn İsa nahiyesi yalnızca bu kuşağa giren kuzey kesimiyle yer alır; Ayn İsa merkezi kuşağın dışındadır. Doğu ve batı kenarlar nahiye sınırlarıdır ve gerçek harekât sınırıyla örtüşmeyebilir; Derbasiye nahiyesi alınmadı. Sitenin Natural Earth 1:50m Suriye sınırına kırpıldı, 0,005° ile sadeleştirildi: 4.985 km².","geometry_method_en":"SCHEMATIC. Union of the Tell Abiad, Suluk and Ein Issa (Tell Abiad district) and Ras Al Ain (Ras Al Ain district) sub-districts from the OCHA COD-AB Syria boundaries (HDX, CC BY-IGO), 7,666 km², limited to 32 km from Türkiye (Natural Earth 10m; buffer in a local LAEA projection) after the 32 km depth in the Sochi memorandum. Ein Issa sub-district enters only with its northern part inside that band; Ein Issa town lies outside it. The eastern and western edges are sub-district boundaries and need not match the operation's actual limits; Darbasiyah sub-district is not included. Clipped to Syria as drawn on the site (Natural Earth 1:50m) and simplified at 0.005°: 4,985 km².","area_km2":4985,"admin_areas":[{"pcode":"SY110200","name_en":"Tell Abiad","name_tr":"Tel Abyad"},{"pcode":"SY110201","name_en":"Suluk","name_tr":"Süluk"},{"pcode":"SY110202","name_en":"Ein Issa","name_tr":"Ayn İsa"},{"pcode":"SY080400","name_en":"Ras Al Ain","name_tr":"Resulayn"}],"attribution":"Boundaries: OCHA COD-AB Syria (United Nations Cartographic Section and partners; OCHA / HDX), CC BY-IGO 3.0 — modified (sub-districts dissolved, clipped, simplified). Not an official United Nations boundary; no endorsement implied.","sources":[{"title":"Letter dated 9 October 2019 from the Permanent Representative of Turkey to the United Nations addressed to the President of the Security Council (S/2019/804)","publisher":"United Nations Security Council","url":"https://documents.un.org/api/symbol/access?l=en&t=pdf&s=S/2019/804","date":"2019-10-09","accessed":"2026-09-13"},{"title":"Suriye'nin kuzeydoğusuna ilişkin Türkiye-ABD ortak açıklaması","publisher":"T.C. Cumhurbaşkanlığı İletişim Başkanlığı","url":"https://www.iletisim.gov.tr/turkce/haberler/detay/suriyenin-kuzeydogusuna-iliskin-turkiye-abd-ortak-aciklamasi","date":"2019-10-17","accessed":"2026-09-13"},{"title":"Türkiye ile Rusya Federasyonu arasında mutabakat muhtırası imzalandı (muhtıra metni)","publisher":"Anadolu Ajansı","url":"https://www.aa.com.tr/tr/dunya/turkiye-ile-rusya-federasyonu-arasinda-mutabakat-muhtirasi-imzalandi/1622980","date":"2019-10-22","accessed":"2026-09-13"},{"title":"Türk askerinin Irak ve Suriye'deki görev süresinin uzatılmasına ilişkin tezkere Genel Kurulda kabul edildi","publisher":"Türkiye Büyük Millet Meclisi","url":"https://www.tbmm.gov.tr/Haber/Detay?Id=98232409-71f0-4b95-8244-019a08a2e22e","date":"2025-10-22","accessed":"2026-09-13"},{"title":"No: 9, 18 Ocak 2026, Suriye'de Açıklanan Ateşkes ve Tam Entegrasyon Anlaşması Hk.","publisher":"T.C. Dışişleri Bakanlığı","url":"https://sam-be.mfa.gov.tr/Mission/ShowAnnouncement/416329","date":"2026-01-18","accessed":"2026-09-13"},{"title":"MSB: Suriye'ye yönelik desteğimiz devam edecek (MSB haftalık basın bilgilendirmesi)","publisher":"TRT Haber","url":"https://www.trthaber.com/haber/gundem/msb-suriyeye-yonelik-destegimiz-devam-edecek-955777.html","date":"2026-09-03","accessed":"2026-09-13"},{"title":"Türkiye will only withdraw from Syria after terror threat ends: Report","publisher":"Daily Sabah","url":"https://www.dailysabah.com/politics/turkiye-will-only-withdraw-from-syria-after-terror-threat-ends-report/news","date":"2026-02-01","accessed":"2026-09-13"},{"title":"Iran Update, January 21, 2026","publisher":"Institute for the Study of War / Critical Threats","url":"https://understandingwar.org/research/middle-east/iran-update-january-21-2026/","date":"2026-01-21","accessed":"2026-09-13"},{"title":"Syrian government, Kurdish-led SDF agree on ceasefire: What to know","publisher":"Al Jazeera","url":"https://www.aljazeera.com/news/2026/1/18/syrian-army-advances-on-sdf-stronghold-of-raqqa-whats-the-latest","date":"2026-01-18","accessed":"2026-09-13"},{"title":"Syrian Kurdish leader announces SDF dissolution after its integration into army","publisher":"France 24","url":"https://www.france24.com/en/middle-east/20260825-syrian-kurdish-leader-dissolves-force-that-spearheaded-jihadist-fight","date":"2026-08-25","accessed":"2026-09-13"},{"title":"Syrian Arab Republic – Subnational Administrative Boundaries (COD-AB), syr_admin_boundaries.shp.zip","publisher":"OCHA / HDX (United Nations Cartographic Section and partners)","url":"https://data.humdata.org/dataset/cod-ab-syr","date":"2026-01-26","accessed":"2026-09-13"}]},"geometry":{"type":"Polygon","coordinates":[[[38.653,36.446],[38.664,36.435],[38.664,36.421],[38.652,36.412],[38.68,36.408],[38.75,36.401],[38.781,36.399],[38.813,36.399],[38.975,36.405],[38.998,36.406],[39.09,36.382],[39.126,36.375],[39.163,36.372],[39.2,36.371],[39.272,36.374],[39.307,36.378],[39.832,36.459],[39.862,36.464],[39.891,36.472],[40.105,36.537],[40.136,36.547],[40.131,36.567],[40.118,36.586],[40.123,36.598],[40.148,36.609],[40.167,36.609],[40.181,36.605],[40.215,36.631],[40.247,36.634],[40.258,36.645],[40.268,36.668],[40.27,36.679],[40.251,36.7],[40.244,36.713],[40.25,36.724],[40.277,36.731],[40.296,36.728],[40.318,36.735],[40.346,36.74],[40.362,36.748],[40.365,36.754],[40.36,36.774],[40.378,36.78],[40.401,36.784],[40.376,36.837],[40.377,36.865],[40.383,36.9],[40.412,36.93],[40.422,36.934],[40.424,36.949],[40.415,36.967],[40.42,36.994],[40.407,36.989],[40.398,36.981],[40.37,36.967],[40.326,36.952],[40.278,36.926],[40.26,36.92],[40.238,36.903],[40.208,36.888],[40.181,36.879],[40.133,36.872],[40.118,36.868],[40.071,36.849],[40.052,36.836],[40.016,36.824],[39.963,36.798],[39.929,36.787],[39.89,36.777],[39.856,36.761],[39.842,36.755],[39.807,36.75],[39.723,36.744],[39.712,36.742],[39.665,36.726],[39.626,36.723],[39.597,36.72],[39.546,36.708],[39.515,36.703],[39.502,36.701],[39.501,36.701],[39.357,36.682],[39.309,36.681],[39.276,36.674],[39.227,36.665],[39.216,36.666],[39.162,36.68],[39.109,36.68],[38.907,36.694],[38.767,36.692],[38.688,36.715],[38.687,36.715],[38.643,36.745],[38.636,36.733],[38.65,36.717],[38.665,36.716],[38.673,36.684],[38.661,36.676],[38.622,36.667],[38.616,36.675],[38.585,36.678],[38.58,36.665],[38.593,36.646],[38.589,36.633],[38.596,36.614],[38.624,36.606],[38.634,36.611],[38.634,36.637],[38.629,36.644],[38.663,36.654],[38.668,36.638],[38.676,36.639],[38.696,36.649],[38.709,36.65],[38.71,36.641],[38.703,36.638],[38.694,36.619],[38.696,36.614],[38.675,36.575],[38.673,36.56],[38.682,36.552],[38.684,36.543],[38.667,36.529],[38.653,36.498],[38.656,36.482],[38.677,36.477],[38.672,36.46],[38.657,36.455],[38.653,36.446]]]}}
]}
